Institution Name,State,City,lat,lon,display_name,geocoded
Central Alabama Community College,AL,Alexander City,32.9243416,-85.9455957,"Central Alabama Community College, Hillsdale Drive, Alexander City, Tallapoosa County, Alabama, 35010, United States of America",True
Chattahoochee Valley Community College,AL,Phenix City,32.4237871,-85.0307291,"Chattahoochee Valley Community College, College Drive, Phenix City, Russell County, Alabama, 36869, United States of America",True
Enterprise State Community College,AL,Enterprise,31.2981182,-85.8371311,"Enterprise State Community College, 600, Plaza Drive, College Heights, Enterprise, Coffee County, Alabama, 36331, United States of America",True
Coastal Alabama Community College,AL,Bay Minette,30.8520861,-87.780878,"Coastal Alabama Community College, North Driskell Avenue, Bay Minette, Baldwin County, Alabama, 36507, United States of America",True
Gadsden State Community College,AL,Gadsden,33.9902905,-85.9938681,"Gadsden State Community College (Wallace Drive Campus), College Drive, Gadsden, Etowah County, Alabama, 35902, United States of America",True
George C Wallace Community College-Dothan,AL,Dothan,31.3175843,-85.4657393,"Wallace Community College - Wallace Campus, 1141, Wallace Drive, Dothan, Dale County, Alabama, 36350, United States of America",True
George C Wallace State Community College-Hanceville,AL,Hanceville,34.0730256,-86.7851064,"Wallace State Community College, 801, Main Street, Hanceville, Cullman County, Alabama, 35077, United States of America",True
George C Wallace State Community College-Selma,AL,Selma,32.4473513,-87.0119731,"George C Wallace State Community College-Selma, Selma, AL",True
J. F. Drake State Community and Technical College,AL,Huntsville,34.74793461012935,-86.55434450444714,"J. F. Drake State Community and Technical College, Huntsville, AL",True
J F Ingram State Technical College,AL,Deatsville,32.61393141938835,-86.35738226070305,"J F Ingram State Technical College, Deatsville, AL",True
Jefferson State Community College,AL,Birmingham,33.6567289,-86.7077432,"Jefferson State Community College, Sunhill Road Northwest, Birmingham, Jefferson County, Alabama, 35215, United States of America",True
John C Calhoun State Community College,AL,Tanner,34.6508577,-86.9489086,"Calhoun Community College, 6250, US Highway 31, Limestone County, Alabama, 35671, United States of America",True
Lawson State Community College,AL,Birmingham,33.4510552,-86.8898754,"Lawson State Community College, Birmingham, AL",True
Lurleen B Wallace Community College,AL,Andalusia,31.3233648,-86.4511785,"Lurleen B. Wallace Community College, 1000, Dannelly Boulevard, Andalusia, Covington County, Alabama, 36420, United States of America",True
Northwest Shoals Community College,AL,Muscle Shoals,34.7397978,-87.677636,"Northwest-Shoals Community College, 800, George Wallace Boulevard, Muscle Shoals, Colbert County, Alabama, 35661, United States of America",True
Northeast Alabama Community College,AL,Rainsville,34.5459194,-85.9096966,"Northeast Alabama Community College, 138, West Main Street, Rainsville, DeKalb County, Alabama, 35986, United States of America",True
Reid State Technical College,AL,Evergreen,31.4628231,-86.9643444,"Reid State Technical College, 100, I 65, Evergreen, Conecuh County, Alabama, 36401, United States of America",True
Bishop State Community College,AL,Mobile,30.6947174,-88.0575253,"Bishop State Community College, 351, North Broad Street, Downtown, Mobile County Commission District 1, Mobile, Mobile County, Alabama, 36603, United States of America",True
Shelton State Community College,AL,Tuscaloosa,33.1206471,-87.5613494,"Shelton State Community College, Phoenix Drive, Tuscaloosa, Tuscaloosa County, Alabama, 35403, United States of America",True
Snead State Community College,AL,Boaz,34.2006503,-86.1691433,"Snead State Community College, 102, Elder Street, Boaz, Marshall County, Alabama, 35957, United States of America",True
H Councill Trenholm State Community College,AL,Montgomery,32.403774651594425,-86.2952570174704,"H Councill Trenholm State Community College, Montgomery, AL",True
Bevill State Community College,AL,Jasper,33.8369363,-87.2661641,"Bevill State Community College, Gamble Avenue, Frisco Quarters, Jasper, Walker County, Alabama, 35501, United States of America",True
University of Alaska Southeast,AK,Juneau,58.3923365,-134.6478123,"University of Alaska Southeast, 11066, Auke Lake Way, Juneau, Alaska, 99801, United States of America",True
Alaska Vocational Technical Center,AK,Seward,60.1074782,-149.441286,"Alaska Vocational Technical Center, 3rd Avenue, Historic Downtown, Seward, Kenai Peninsula Borough, Alaska, 99664, United States of America",True
Charter College,AK,Anchorage,61.1962668,-149.8390454,"Charter College, Sorbus Way, Woodside East, Anchorage, Alaska, 99508, United States of America",True
Eastern Arizona College,AZ,Thatcher,32.8455678,-109.7620438,"Eastern Arizona College, 615, North Stadium Avenue, Thatcher, Graham County, Arizona, 85552, United States of America",True
GateWay Community College,AZ,Phoenix,33.449924,-111.9976567,"GateWay Community College, 108, South 40th Street, Central City, Phoenix, Maricopa County, Arizona, 85034, United States of America",True
Mesa Community College,AZ,Mesa,33.3897698,-111.8702146,"Mesa Community College, 1833, West Southern Avenue, Phoenix, Maricopa County, Arizona, 85202, United States of America",True
Northland Pioneer College,AZ,Holbrook,34.9301705,-110.1419257,"Northland Pioneer College Painted Desert Campus, 2251, Navajo Boulevard, Lisitzky Subdivision, Holbrook, Navajo County, Arizona, 86025, United States of America",True
Universal Technical Institute of Arizona Inc,AZ,Avondale,33.40662826613476,-112.37887355960319,"Universal Technical Institute of Arizona Inc, Avondale, AZ",True
Yavapai College,AZ,Prescott,34.5472599,-112.4549,"Yavapai College, 1100, Whitlow Avenue, Prescott, Yavapai County, Arizona, 86303, United States of America",True
Black River Technical College,AR,Pocahontas,36.2408657,-90.95176,"Black River Technical College, 1410, Carter Lane, Pocahontas, Randolph County, Arkansas, 72455, United States of America",True
National Park College,AR,Hot Springs,34.5290712,-93.0301402,"National Park College, Hot Springs, AR",True
Arkansas State University Mid-South,AR,West Memphis,35.1457312,-90.2229291,"Arkansas State University Mid-South, 2000, West Broadway Boulevard, West Memphis, Crittenden County, Arkansas, 72301, United States of America",True
Northwest Technical Institute,AR,Springdale,36.1781481,-94.1142366,"Northwest Technical Institute, 709, South Old Missouri Road, Springdale, Washington County, Arkansas, 72764, United States of America",True
Arkansas State University Three Rivers,AR,Malvern,34.3786856,-92.8219754,"Arkansas State University Three Rivers, One, Park Drive, Malvern, Hot Spring County, Arkansas, 72104, United States of America",True
Ozarka College,AR,Melbourne,36.0540065,-91.89649,"Ozarka College, College Drive, Melbourne, Izard County, Arkansas, 72556, United States of America",True
University of Arkansas Community College-Morrilton,AR,Morrilton,35.1723033,-92.7292432,"University of Arkansas Community College-Morrilton, Morrilton, AR",True
Phillips Community College of the University of Arkansas,AR,Helena,34.52076914481573,-90.56124109512174,"Phillips Community College of the University of Arkansas, Helena, AR",True
South Arkansas College,AR,El Dorado,33.2100437,-92.6672488,"South Arkansas Community College, 300, South West Avenue, El Dorado, Union County, Arkansas, 71730, United States of America",True
Southern Arkansas University Tech,AR,Camden,33.6297229,-92.7207898,"Southern Arkansas University Tech, 6415, AR 203, East Camden, Calhoun County, Arkansas, 71701, United States of America",True
University of Arkansas-Fort Smith,AR,Fort Smith,35.3829856,-94.3741271,"University of Arkansas - Fort Smith, North Waldron Road, Fort Smith, Sebastian County, Arkansas, 72904, United States of America",True
American River College,CA,Sacramento,38.6488437,-121.3465012,"American River College, 4700, College Oak Drive, Sacramento County, California, 95841, United States of America",True
Bakersfield College,CA,Bakersfield,35.4087656,-118.972026,"Bakersfield College, 1801, Panorama Drive, Bakersfield, Kern County, California, 93305, United States of America",True
Barstow Community College,CA,Barstow,34.8713836,-117.0256886,"Barstow Community College, Trinity Avenue, Barstow, San Bernardino County, California, 92311, United States of America",True
Brownson Technical School,CA,Anaheim,33.85909030222979,-117.92712419177936,"Brownson Technical School, Anaheim, CA",True
Butte College,CA,Oroville,39.6484919,-121.6463775,"Butte - Glenn Community College, 3536, Butte Campus Drive, Oroville, Butte County, California, 95965, United States of America",True
College of the Canyons,CA,Santa Clarita,34.4353051,-118.4305718,"College of the Canyons - Canyon Country, Sierra Highway, Santa Clarita, Los Angeles County, California, 91387, United States of America",True
CET-San Diego,CA,San Diego,,,,False
CET-San Jose,CA,San Jose,,,,False
CET-El Centro,CA,El Centro,,,,False
CET-Colton,CA,Colton,,,,False
CET-Watsonville,CA,Watsonville,,,,False
Cerritos College,CA,Norwalk,33.8831622,-118.0973395,"Cerritos College, 11110, Alondra Boulevard, Norwalk, Los Angeles County, California, 90650, United States of America",True
Cerro Coso Community College,CA,Ridgecrest,35.5675379,-117.6716369,"Cerro Coso Community College - Indian Wells Valley Campus, College Heights Boulevard, Ridgecrest, Kern County, California, United States of America",True
Chabot College,CA,Hayward,37.6426649,-122.1073304,"Chabot College, Heather Court, Hayward, Alameda County, California, 94545, United States of America",True
Chaffey College,CA,Rancho Cucamonga,34.1481388,-117.5703738,"Chaffey College, 5885, Haven Avenue, Alta Loma, Rancho Cucamonga, San Bernardino County, California, 91737, United States of America",True
Citrus College,CA,Glendora,34.1343151,-117.8856927,"Citrus College, 1000, West Foothill Boulevard, La Fetra, Glendora, Los Angeles County, California, 91741, United States of America",True
City College of San Francisco,CA,San Francisco,37.7259414,-122.450336,"City College of San Francisco (CCSF) Ocean Campus, 50, Frida Kahlo Way, Ingleside, San Francisco, California, 94112, United States of America",True
Milan Institute-Visalia,CA,Visalia,36.2715348,-119.3118797,"Milan Institute, 6500, South Mooney Boulevard, Visalia, Tulare County, California, 93277, United States of America",True
Columbia College,CA,Sonora,38.0307051,-120.3875489,"Columbia College, 11600, Columbia College Drive, Martinez, Sonora, Tuolumne County, California, 95370, United States of America",True
Compton College,CA,Compton,,,,False
Cosumnes River College,CA,Sacramento,38.4552767,-121.4228781,"Cosumnes River College, Bruceville Road, Valley Hi / North Laguna, Sacramento, Sacramento County, California, 95823, United States of America",True
Cypress College,CA,Cypress,33.8278065,-118.0240066,"Cypress College, 9200, Valley View Street, Cypress, Orange County, California, 90630, United States of America",True
De Anza College,CA,Cupertino,37.3177007,-122.0445571,"De Anza College, 21250, Stevens Creek Boulevard, Cupertino, Santa Clara County, California, 95014, United States of America",True
College of the Desert,CA,Palm Desert,33.7324666,-116.3868288,"College of the Desert, 43500, Monterey Avenue, Palm Desert, Riverside County, California, 92260, United States of America",True
Diablo Valley College,CA,Pleasant Hill,37.9686779,-122.0704218,"Diablo Valley College, 321, Golf Club Road, College Park, Pleasant Hill, Contra Costa County, California, 94523, United States of America",True
El Camino Community College District,CA,Torrance,,,,False
Evergreen Valley College,CA,San Jose,37.3011208,-121.7637335,"Evergreen Valley College, 3095, Yerba Buena Road, Evergreen, San Jose, Santa Clara County, California, 95135, United States of America",True
Foothill College,CA,Los Altos Hills,37.3617114,-122.1282717,"Foothill College, 12345, El Monte Road, Los Altos Hills, Santa Clara County, California, 94022, United States of America",True
Fresno City College,CA,Fresno,36.7679339,-119.7965914,"Fresno City College, 1101, East University Avenue, Fresno, Fresno County, California, 93741, United States of America",True
Fullerton College,CA,Fullerton,33.8748211,-117.9182688,"Fullerton College, East Chapman Avenue, Downtown Fullerton, Fullerton, Orange County, California, 92831, United States of America",True
Glendale Community College,CA,Glendale,34.16688,-118.2284439,"Glendale Community College, 1500, North Verdugo Road, Glendale, Los Angeles County, California, 91208, United States of America",True
Golden West College,CA,Huntington Beach,33.7337195,-118.003575,"Golden West College, 15744, Goldenwest Street, Huntington Beach, Orange County, California, 92647, United States of America",True
Institute for Business and Technology,CA,Santa Clara,,,,False
Irvine Valley College,CA,Irvine,33.6746378,-117.779133,"Irvine Valley College, 5500, Irvine Center Drive, Oak Creek, Irvine, Orange County, California, 92618, United States of America",True
Reedley College,CA,Reedley,36.6083486,-119.4604433,"Reedley College, 995, North Reed Avenue, Reedley, Fresno County, California, 93654, United States of America",True
Laney College,CA,Oakland,37.7942491,-122.2607931,"Laney College, 900, Fallon Street, Civic Center, Downtown Oakland, Oakland, Alameda County, California, 94607, United States of America",True
Lassen Community College,CA,Susanville,40.4301376,-120.6338875,"Lassen Community College, Skyline Road, Susanville, Lassen County, California, 96310, United States of America",True
Long Beach City College,CA,Long Beach,,,,False
Los Angeles Pierce College,CA,Woodland Hills,,,,False
Los Angeles Trade Technical College,CA,Los Angeles,34.0312813,-118.2703148,"Los Angeles Trade Technical College, 400, West Washington Boulevard, Los Angeles, Los Angeles County, California, 90015, United States of America",True
Los Angeles Valley College,CA,Valley Glen,34.1757583,-118.4203406,"Los Angeles Valley College, 5800, Fulton Avenue, Valley Glen, Greater Valley Glen Neighborhood Council District, Los Angeles, Los Angeles County, California, 91401, United States of America",True
Los Angeles Mission College,CA,Sylmar,34.3148609,-118.4189764,"Los Angeles Mission College, 13356, Eldridge Avenue, Sylmar Neighborhood Council District, Los Angeles, Los Angeles County, California, 91342, United States of America",True
Los Medanos College,CA,Pittsburg,38.0054122,-121.8611075,"Los Medanos College, Gladstone Drive, Pittsburg, Contra Costa County, California, 94565, United States of America",True
College of Marin,CA,Kentfield,37.9507726,-122.5478097,"College of Marin, Sir Francis Drake Boulevard, Kentfield, Marin County, California, 94904, United States of America",True
Mendocino College,CA,Ukiah,39.1893024,-123.2293959,"Mendocino College, 1000, Hensley Creek Road, The Forks, Ukiah, Mendocino County, California, 95482, United States of America",True
Merced College,CA,Merced,37.3346619,-120.4736278,"Merced College, 3600, M Street, Bellview Ranch, Bellevue Ranch, Merced, Merced County, California, 95348, United States of America",True
MiraCosta College,CA,Oceanside,33.1907697,-117.3023599,"Miracosta College, 1, Barnard Drive, Oceanside, San Diego County, California, 92056, United States of America",True
Modesto Junior College,CA,Modesto,37.6538032,-121.0097842,"Modesto Junior College, Yale Avenue, Aurora, Modesto, Stanislaus County, California, 95354, United States of America",True
Monterey Peninsula College,CA,Monterey,36.5909278,-121.8848368,"Monterey Peninsula College, Via Mirada, Monterey, Monterey County, California, 93940, United States of America",True
Moorpark College,CA,Moorpark,34.2996156,-118.8366656,"Moorpark Community College;Moorpark College, 7075, Campus Road, Moorpark, Ventura County, California, 93021, United States of America",True
Mt San Antonio College,CA,Walnut,34.0487669,-117.8416242,"Mount San Antonio College, 1100, North Grand Avenue, Walnut, Los Angeles County, California, 91789, United States of America",True
Mt San Jacinto Community College District,CA,San Jacinto,,,,False
Napa Valley College,CA,Napa,38.2740159,-122.2763725,"Napa Valley College, 2277, Napa-Vallejo Highway, Napa, Napa County, California, 94558, United States of America",True
Newschool of Architecture and Design,CA,San Diego,32.7133688,-117.1533911,"Newschool of Architecture and Design, F Street, East Village, San Diego, San Diego County, California, 92101, United States of America",True
Ohlone College,CA,Fremont,37.533546,-121.9063319,"Ohlone College, Saint Joseph Terrace, Mission San Jose District, Fremont, Alameda County, California, 94537, United States of America",True
Orange Coast College,CA,Costa Mesa,33.6715898,-117.9121267,"Orange Coast College, 2701, Fairview Road, Costa Mesa, Orange County, California, 92626, United States of America",True
Otis College of Art and Design,CA,Los Angeles,33.9567391,-118.4171692,"Otis College of Art and Design, La Tijera Boulevard, Los Angeles, Los Angeles County, California, 90045, United States of America",True
Oxnard College,CA,Oxnard,34.165713,-119.1555256,"Oxnard Community College, Simpson Drive, Oxnard, Ventura County, California, 93033, United States of America",True
Palo Verde College,CA,Blythe,33.6630329,-114.6529014,"Palo Verde College, 6th Avenue, Blythe, Riverside County, California, United States of America",True
Palomar College,CA,San Marcos,33.15125,-117.1808184,"Palomar College, 1140, West Mission Road, San Marcos, San Diego County, California, 92069, United States of America",True
Pasadena City College,CA,Pasadena,34.1440003,-118.1185206,"Pasadena City College, 1570, East Colorado Boulevard, Pasadena Council District 7, Pasadena, Los Angeles County, California, 91106, United States of America",True
Porterville College,CA,Porterville,36.0471977,-119.0154854,"Porterville College, East College Avenue, Plano, Porterville, Tulare County, California, 93257, United States of America",True
Santa Ana College,CA,Santa Ana,33.7576195,-117.8887602,"Santa Ana College, 1530, West 17th Street, Santa Ana, Orange County, California, 92706, United States of America",True
College of the Redwoods,CA,Eureka,,,,False
Rio Hondo College,CA,Whittier,34.0198288,-118.0323015,"Rio Hondo College, 3600, Workman Mill Road, Rose Hills, Whittier, Los Angeles County, California, 90601, United States of America",True
Riverside City College,CA,Riverside,33.9716586,-117.3806576,"Riverside City College, 4800, Magnolia Avenue, Wood Streets, Riverside, Riverside County, California, 92506, United States of America",True
Sacramento City College,CA,Sacramento,38.5423995,-121.4900622,"Sacramento City College, 3835, Freeport Boulevard, Land Park, Sacramento, Sacramento County, California, 95822, United States of America",True
Saddleback College,CA,Mission Viejo,33.5513754,-117.6654169,"Saddleback College, Marguerite Parkway, Mission Viejo, Orange County, California, 92692, United States of America",True
San Diego City College,CA,San Diego,32.7197943,-117.1543311,"San Diego City College, Park Boulevard, East Village, San Diego, San Diego County, California, 92101, United States of America",True
San Diego Miramar College,CA,San Diego,32.9088854,-117.1210641,"San Diego Miramar College, Westview Parkway, San Diego, San Diego County, California, 92126, United States of America",True
San Joaquin Delta College,CA,Stockton,37.9952557,-121.3193097,"San Joaquin Delta College, 5151, Pacific Avenue, Stockton, San Joaquin County, California, 95207, United States of America",True
San Joaquin Valley College-Visalia,CA,Visalia,36.3285018,-119.3847491,"San Joaquin Valley College Visalia, 8344, Mineral King Avenue, Visalia, Tulare County, California, 93291, United States of America",True
San Joaquin Valley College-Bakersfield,CA,Bakersfield,35.3527276,-119.061996,"San Joaquin Valley College - Bakersfield, New Stine Road, Bakersfield, Kern County, California, 93309, United States of America",True
San Jose City College,CA,San Jose,37.313909,-121.9271204,"San José City College, 600, South Bascom Avenue, Buena Vista, San Jose, Santa Clara County, California, 95128, United States of America",True
College of San Mateo,CA,San Mateo,37.5350308,-122.3347573,"College of San Mateo, 1700, West Hillsdale Boulevard, San Mateo, San Mateo County, California, 94402, United States of America",True
Santa Barbara City College,CA,Santa Barbara,34.4058643,-119.6974204,"Santa Barbara City College, 721, Cliff Drive, Santa Barbara, Santa Barbara County, California, 93109, United States of America",True
Santa Monica College,CA,Santa Monica,34.0167113,-118.4707609,"Santa Monica College, 19th Court, Santa Monica, Los Angeles County, California, 90405, United States of America",True
Santa Rosa Junior College,CA,Santa Rosa,38.4546363,-122.7216065,"Santa Rosa Junior College, 1501, Mendocino Avenue, Santa Rosa, Sonoma County, California, 95401, United States of America",True
College of the Sequoias,CA,Visalia,36.32454,-119.3162971,"College of the Sequoias, 915, South Mooney Boulevard, Visalia, Tulare County, California, 93277, United States of America",True
Shasta College,CA,Redding,40.6273671,-122.3143175,"Shasta College, 11555, Old Oregon Trail, Redding, Shasta County, California, 96049, United States of America",True
Sierra College,CA,Rocklin,38.7944398,-121.210556,"Sierra College - Rocklin Campus, 5000, Rocklin Road, Rocklin, Placer County, California, 95677, United States of America",True
College of the Siskiyous,CA,Weed,41.4114918,-122.3895097,"College of the Siskiyous, College Avenue, Weed, Siskiyou County, California, 96094, United States of America",True
Charles A Jones Career and Education Center,CA,Sacramento,38.5170439,-121.4414063,"Charles A Jones Career and Education Center, 5451, Lemon Hill Avenue, Parkway-South Sacramento, Sacramento, Sacramento County, California, 95824, United States of America",True
Skyline College,CA,San Bruno,37.6305806,-122.4660086,"Skyline College, 3300, College Drive, San Bruno, San Mateo County, California, 94066, United States of America",True
San Bernardino Valley College,CA,San Bernardino,34.0870562,-117.3107368,"San Bernardino Valley College, 701, South Mount Vernon Avenue, Bunker Hill, San Bernardino, San Bernardino County, California, 92410, United States of America",True
Solano Community College,CA,Fairfield,38.2355724,-122.1205636,"Solano Community College, 4000, Suisun Valley Road, Fairfield, Solano County, California, 94534, United States of America",True
Southwestern College,CA,Chula Vista,32.6399476,-116.9980493,"Southwestern College, 900, Otay Lakes Road, Chula Vista, San Diego County, California, 91910, United States of America",True
Taft College,CA,Taft,35.1486213,-119.4619583,"Taft Junior College, Warren Street, South Taft, Taft, Kern County, California, 93268, United States of America",True
Ventura College,CA,Ventura,34.2772814,-119.2326722,"Ventura College, 4667, Telegraph Road, San Buenaventura (Ventura), Ventura County, California, 93003, United States of America",True
Victor Valley College,CA,Victorville,34.4767604,-117.2615133,"Victor Valley Community College, Jacaranda Avenue, Victorville, San Bernardino County, California, 92308, United States of America",True
Coalinga College,CA,Coalinga,36.1492232,-120.3567433,"Coalinga College, North Grant Street, Coalinga, Fresno County, California, United States of America",True
Carrington College-Sacramento,CA,Sacramento,38.5559866,-121.3712591,"Carrington College Sacaremento, Folsom Boulevard, Manlove, Sacramento County, California, 95826, United States of America",True
Yuba College,CA,Marysville,,,,False
Aims Community College,CO,Greeley,40.4105842,-104.7612905,"Aims Community College, 5401, Westview Lane, Greeley, Weld County, Colorado, 80632, United States of America",True
Arapahoe Community College,CO,Littleton,39.6080047,-105.0182713,"Arapahoe Community College, West College Drive, Littleton, Arapahoe County, Colorado, 80201, United States of America",True
Spartan College of Aeronautics and Technology,CO,Broomfield,39.91483,-105.1191058,"Spartan College of Aeronautics and Technology, 10851, West 120th Avenue, Interlocken, Broomfield, Colorado, 80021, United States of America",True
Colorado Mountain College,CO,Glenwood Springs,39.4701131,-107.235148,"Colorado Mountain College, 3000, Colorado Mountain College Road, Glenwood Springs, Garfield County, Colorado, 81601, United States of America",True
Colorado Northwestern Community College,CO,Rangely,,,,False
Community College of Aurora,CO,Aurora,39.7277897,-104.8831726,"Community College of Aurora, East Severn Place, Aurora, Arapahoe County, Colorado, 80230, United States of America",True
Community College of Denver,CO,Denver,39.7412631,-105.0046085,"Community College of Denver, 800, Curtis Street, Auraria, Denver, Colorado, 80204, United States of America",True
Lincoln College of Technology-Denver,CO,Denver,39.7769325,-104.8563333,"Lincoln College of Technology, 11194, East 45th Avenue, Denver, Colorado, 80239, United States of America",True
Emily Griffith Technical College,CO,Denver,,,,False
Front Range Community College,CO,Westminster,39.901215,-105.039047,"Front Range Community College, 3645, West 112th Avenue, Westminster, Adams County, Colorado, 80031, United States of America",True
Lamar Community College,CO,Lamar,38.0671492,-102.6159617,"Lamar Community College, 2401, South Main Street, Lamar, Prowers County, Colorado, 81052, United States of America",True
Morgan Community College,CO,Fort Morgan,40.2582038,-103.7704553,"Morgan Community College, 920, Barlow Road, Fort Morgan, Morgan County, Colorado, 80701, United States of America",True
Northeastern Junior College,CO,Sterling,40.6367426,-103.2146221,"Northeastern Junior College, Macgregor Road, Sterling, Logan County, Colorado, 80751, United States of America",True
Otero College,CO,La Junta,37.9711204,-103.5438322,"Otero Junior College, 1802, Colorado Avenue, La Junta, Otero County, Colorado, 81050, United States of America",True
Pikes Peak State College,CO,Colorado Springs,,,,False
Pueblo Community College,CO,Pueblo,38.2631861,-104.6371719,"Pueblo Community College, 900, West Orman Avenue, Aberdeen, Pueblo, Pueblo County, Colorado, 81004, United States of America",True
Red Rocks Community College,CO,Lakewood,39.720941,-105.148909,"Red Rocks Community College, Arbutus Drive, Lakewood, Jefferson County, Colorado, 80228, United States of America",True
Pickens Technical College,CO,Aurora,39.7233194,-104.7897097,"Pickens Technical College, Airport Boulevard, Aurora, Arapahoe County, Colorado, 80047, United States of America",True
Trinidad State College,CO,Trinidad,37.1730443,-104.5136877,"Trinidad State College, 600, Prospect Street, Trinidad, Las Animas County, Colorado, 81082, United States of America",True
Charter Oak State College,CT,New Britain,41.6882277,-72.7679692,"Charter Oak State College, 55, Paul Manafort Sr. Drive, New Britain, Capitol Planning Region, Connecticut, 06053, United States of America",True
Porter & Chester Institute of Hamden,CT,Hamden,,,,False
Goodwin University,CT,East Hartford,41.7414433,-72.6378499,"Goodwin University, 1, Riverside Drive, East Hartford, Capitol Planning Region, Connecticut, 06118, United States of America",True
Connecticut State Community College,CT,Hartford,,,,False
Mitchell College,CT,New London,41.3281508,-72.0961625,"Mitchell College, 437, Pequot Avenue, Osprey Beach, New London, Southeastern Connecticut Planning Region, Connecticut, 06320, United States of America",True
Lincoln Technical Institute-New Britain,CT,New Britain,41.6594184,-72.7545503,"Lincoln Technical Institute, 200, John Downey Drive, New Britain Industrial Park, New Britain, Capitol Planning Region, Connecticut, 06051, United States of America",True
New England Tractor Trailer Training School of Connecticut,CT,Somers,,,,False
Porter & Chester Institute,CT,Bridgeport,,,,False
Delaware Technical Community College-Terry,DE,Dover,,,,False
North Florida Technical College,FL,Starke,,,,False
Eastern Florida State College,FL,Melbourne,28.1701059,-80.6699264,"Eastern Florida State College - Melbourne Campus, Titan Boulevard, Melbourne, Brevard County, Florida, 32934, United States of America",True
Broward College,FL,Fort Lauderdale,26.1038889,-80.1947222,"College Academy at Broward Community College High S, Southwest 13th Court, Fort Lauderdale, Broward County, Florida, 33312, United States of America",True
College of Central Florida,FL,Ocala,29.1646988,-82.1739821,"College of Central Florida, 3001, Southwest College Road, Ocala, Marion County, Florida, 34474, United States of America",True
Chipola College,FL,Marianna,30.7912692,-85.2314061,"Chipola College, 3094, Indian Circle, Marianna, Jackson County, Florida, 32446, United States of America",True
Daytona State College,FL,Daytona Beach,29.2031792,-81.0502093,"Daytona State College, 1200, Magnolia Avenue, Daytona Beach, Volusia County, Florida, 32114, United States of America",True
Florida State College at Jacksonville,FL,Jacksonville,,,,False
Florida Institute of Technology,FL,Melbourne,28.064271,-80.623004,"Florida Institute of Technology, East University Boulevard, Melbourne, Brevard County, Florida, 32901, United States of America",True
George Stone Technical College,FL,Pensacola,,,,False
Hillsborough Community College,FL,Tampa,27.9778326,-82.5095191,"Hillsborough Community College, 4001, West Tampa Bay Boulevard, Tampa, Hillsborough County, Florida, 33614, United States of America",True
Hobe Sound Bible College,FL,Hobe Sound,27.065936,-80.1322764,"Hobe Sound Bible College, Southeast Gomez Avenue, Gomez, Martin County, Florida, 33455, United States of America",True
Indian River State College,FL,Fort Pierce,27.419618,-80.3598103,"Indian River State College, 3209, Virginia Avenue, Fort Pierce, Saint Lucie County, Florida, 34981, United States of America",True
Florida Gateway College,FL,Lake City,30.1739118,-82.5677669,"Florida Gateway College, 149, Southeast College Place, Lake City, Columbia County, Florida, 32025, United States of America",True
Lively Technical College,FL,Tallahassee,30.4493452,-84.3400593,"Lively Technical College, 500, Appleyard Drive, Tallahassee, Leon County, Florida, 32304, United States of America",True
Traviss Technical College,FL,Lakeland,,,,False
Merryfield Academy,FL,Oakland Park,,,,False
Miami Lakes Educational Center and Technical College,FL,Miami Lakes,,,,False
Orange Technical College-South Campus,FL,Orlando,,,,False
North Florida College,FL,Madison,30.4752833,-83.4219327,"North Florida Community College, 32, Northwest Turner Davis Drive, Madison, Madison County, Florida, 32340, United States of America",True
Northwest Florida State College,FL,Niceville,,,,False
Palm Beach State College,FL,Lake Worth,,,,False
Pasco-Hernando State College,FL,New Port Richey,,,,False
Pensacola State College,FL,Pensacola,30.4800624,-87.2017822,"Pensacola State College, 1000, College Boulevard, Corporate Woods, Pensacola, Escambia County, Florida, 32504, United States of America",True
Pinellas Technical College-Clearwater,FL,Clearwater,,,,False
Polk State College,FL,Winter Haven,28.0331349,-81.715241,"Polk State College, West Lake Elbert Drive Northeast, Winter Haven, Polk County, Florida, 33881, United States of America",True
Radford M Locklin Technical College,FL,Milton,,,,False
Ridge Technical College,FL,Winter Haven,28.0758037,-81.6555384,"Ridge Technical College, Brenton Manor Avenue, Winter Haven, Polk County, Florida, 33851, United States of America",True
Robert Morgan Educational Center and Technical College,FL,Miami,,,,False
First Coast Technical College,FL,Saint Augustine,,,,False
St Petersburg College,FL,St. Petersburg,27.7577433,-82.6626254,"Saint Petersburg College (SPC) - Midtown Campus, 13th Avenue South, Pine Acres, Saint Petersburg, Pinellas County, Florida, 33712, United States of America",True
Pinellas Technical College-St. Petersburg,FL,Saint Petersburg,27.760757,-82.6817772,"Pinellas Technical College, 901, 34th Street South, Saint Petersburg, Pinellas County, Florida, 33711, United States of America",True
Santa Fe College,FL,Gainesville,29.6548957,-82.3305519,"Santa Fe College Downtown Campus, 6th Street Rail-Trail, Gainesville, Alachua County, Florida, 32601, United States of America",True
Suncoast Technical College,FL,Sarasota,27.286266,-82.5002397,"Suncoast Technical College, 4748, Proctor Road, Ridge Wood Heights, Sarasota County, Florida, 34233, United States of America",True
Seminole State College of Florida,FL,Sanford,,,,False
Sheridan Technical College,FL,Hollywood,26.0315146,-80.1984172,"Sheridan Technical College, Sheridan Street, Playland Estates, Hollywood, Broward County, Florida, 33021, United States of America",True
South Florida State College,FL,Avon Park,27.593204,-81.5158584,"South Florida State College Crews Center, West Camphor Street, Lemon Tree, Avon Park, Highlands County, Florida, 33825, United States of America",True
Riveroak Technical College,FL,Live Oak,30.2819756,-82.9930433,"RIVEROAK Technical College, 415, Pinewood Drive, Live Oak, Suwannee County, Florida, 32064, United States of America",True
Tallahassee Community College,FL,Tallahassee,30.4429211,-84.3410479,"Tallahassee State College, 444, Appleyard Drive, Tallahassee, Leon County, Florida, 32304, United States of America",True
Big Bend Technical College,FL,Perry,,,,False
Valencia College,FL,Orlando,28.5217016,-81.4634178,"Valencia College West Campus, 1800, South Kirkman Road, Metro West, Orlando, Orange County, Florida, 32811, United States of America",True
Florida Panhandle Technical College,FL,Chipley,30.7743585,-85.5527077,"Florida Panhandle Technical College, Hoyt Street, Chipley, Washington County, Florida, 32428, United States of America",True
Orange Technical College-West Campus,FL,Winter Garden,28.599883,-81.5566941,"Orange Technical College West Campus, West Orange Trail, Winter Garden, Orange County, Florida, 34761, United States of America",True
Interactive College of Technology-Chamblee,GA,Chamblee,33.8868078,-84.304467,"Interactive College of Technology-Chamblee, 5303, New Peachtree Road, Chamblee, DeKalb County, Georgia, 30341, United States of America",True
Atlanta Technical College,GA,Atlanta,33.7123507,-84.4047232,"Atlanta Technical College, 1560, Metropolitan Parkway Southwest, Capitol View, Atlanta, Fulton County, Georgia, 30315, United States of America",True
Augusta Technical College,GA,Augusta,33.4184409,-82.0485458,"Augusta Technical College, Augusta Tech Drive, Glenn Hills, Augusta, Richmond County, Georgia, 30906, United States of America",True
Columbus Technical College,GA,Columbus,32.507851,-84.9779304,"Columbus Technical College, 47th Street, Beallwoods, Columbus, Muscogee County, Georgia, 31904, United States of America",True
Georgia Northwestern Technical College,GA,Rome,34.2244172,-85.1709137,"Georgia Northwestern Technical College, Maurice Culberson Dr, Rome, Floyd County, Georgia, 30161, United States of America",True
Southern Crescent Technical College,GA,Griffin,33.2553595,-84.2912805,"Southern Crescent Technical College, Spalding Drive, Griffin, Spalding County, Georgia, 30223, United States of America",True
Gwinnett Technical College,GA,Lawrenceville,33.9632736,-84.0672921,"Gwinnett Technical College, 5150, Sugarloaf Parkway, Lawrenceville, Gwinnett County, Georgia, 30043, United States of America",True
Savannah Technical College,GA,Savannah,32.0233058,-81.1153119,"Savannah Technical College, 5717, White Bluff Road, Groveland, Savannah, Chatham County, Georgia, 31405, United States of America",True
South Georgia Technical College,GA,Americus,,,,False
Wesleyan College,GA,Macon,32.8734285,-83.717734,"Wesleyan College, 4760, Forsyth Road, Idle Hour Estates, Macon, Bibb County, Georgia, 31210, United States of America",True
Honolulu Community College,HI,Honolulu,,,,False
Kauai Community College,HI,Lihue,,,,False
Leeward Community College,HI,Pearl City,,,,False
University of Hawaii Maui College,HI,Kahului,20.8906488,-156.4798899,"University of Hawaiʻi Maui College Kalama, 310, Kaahumanu Avenue, Kahului, Maui County, Hawaii, 96732, United States of America",True
Carrington College-Boise,ID,Boise,43.6156543,-116.2601963,"Carrington College, Boise Connector, Boise, Ada County, Idaho, 83704, United States of America",True
College of Eastern Idaho,ID,Idaho Falls,43.485678,-111.9865311,"College of Eastern Idaho, Ashment Avenue, Centennial Square, Idaho Falls, Bonneville County, Idaho, 83405, United States of America",True
Idaho State University,ID,Pocatello,42.862567,-112.4321627,"Idaho State University, 921, South 8th Avenue, Pocatello, Bannock County, Idaho, 83209, United States of America",True
Lewis-Clark State College,ID,Lewiston,46.4108402,-117.0268096,"Lewis-Clark State College, 4th Street, Lewiston, Nez Perce County, Idaho, 99403, United States of America",True
North Idaho College,ID,Coeur d'Alene,47.6783662,-116.7971465,"North Idaho College, Military Drive, Coeur d'Alene, Kootenai County, Idaho, 83815, United States of America",True
Brigham Young University-Idaho,ID,Rexburg,43.8173791,-111.782372,"Brigham Young University - Idaho, Physical Plant Way, Rexburg, Madison County, Idaho, 83460, United States of America",True
Southwestern Illinois College,IL,Belleville,38.5186693,-89.9210561,"Southwestern Illinois College, Belleville, Saint Clair County, Illinois, 62221, United States of America",True
Black Hawk College,IL,Moline,41.4769912,-90.4489005,"Black Hawk College, John Deere Road, Moline, Rock Island County, Illinois, 61265, United States of America",True
Carl Sandburg College,IL,Galesburg,40.9816116,-90.4069349,"Carl Sandburg College, Tom L Wilson Boulevard, Galesburg, Knox County, Illinois, 61402, United States of America",True
City Colleges of Chicago-Kennedy-King College,IL,Chicago,,,,False
City Colleges of Chicago-Olive-Harvey College,IL,Chicago,,,,False
City Colleges of Chicago-Harry S Truman College,IL,Chicago,,,,False
City Colleges of Chicago-Richard J Daley College,IL,Chicago,,,,False
Danville Area Community College,IL,Danville,40.129215,-87.5863026,"Danville Area Community College, Illinois Street, Danville, Vermilion County, Illinois, 61832, United States of America",True
College of DuPage,IL,Glen Ellyn,41.8415061,-88.0730037,"College of DuPage, 425, Fawell Boulevard, Glen Ellyn, DuPage County, Illinois, 60137, United States of America",True
Elgin Community College,IL,Elgin,42.0186079,-88.3214723,"Elgin Community College, 1700, Spartan Drive, College Park, Elgin, Elgin Township, Kane County, Illinois, 60123, United States of America",True
Highland Community College,IL,Freeport,42.2835559,-89.6753648,"Highland Community College, 2998, West Pearl City Road, Freeport, Stephenson County, Illinois, 61032, United States of America",True
Illinois Central College,IL,East Peoria,40.7083389,-89.5190958,"Illinois Central College, 1, College Drive, East Peoria, Tazewell County, Illinois, 61635, United States of America",True
Illinois Valley Community College,IL,Oglesby,41.3046573,-89.100924,"Illinois Valley Community College, East 350th Road, Oglesby, LaSalle County, Illinois, 61348, United States of America",True
John A Logan College,IL,Carterville,37.7489932,-89.0888152,"John A Logan College, 700, Logan College Road, Carterville, Williamson County, Illinois, 62918, United States of America",True
John Wood Community College,IL,Quincy,39.9133608,-91.3349251,"John Wood Community College, 1301, South 48th Street, Quincy, Adams County, Illinois, 62305, United States of America",True
Joliet Junior College,IL,Joliet,41.5003466,-88.1809635,"Joliet Junior College, 1215, Centennial Drive, Joliet, Troy Township, Will County, Illinois, 60431, United States of America",True
Kankakee Community College,IL,Kankakee,41.0956514,-87.8522639,"Kankakee Community College, College Drive, Kankakee, Kankakee County, Illinois, 60901, United States of America",True
Kaskaskia College,IL,Centralia,38.5619995,-89.1925866,"Kaskaskia College, 27210, College Road, Centralia, Clinton County, Illinois, 62801, United States of America",True
Kishwaukee College,IL,Malta,41.9385879,-88.8820458,"Kishwaukee College, 21193, Malta Road, Malta, Malta Township, DeKalb County, Illinois, 60150, United States of America",True
College of Lake County,IL,Grayslake,42.3554202,-88.0123623,"College of Lake County, 19351, Washington Street, Grayslake, Lake County, Illinois, 60030, United States of America",True
Lake Land College,IL,Mattoon,39.4160885,-88.3844277,"Lake Land College, 5001, Lake Land Boulevard, Mattoon, Coles County, Illinois, 61938, United States of America",True
Lincoln Land Community College,IL,Springfield,39.7200455,-89.611203,"Lincoln Land Community College, 5250, Shepherd Road, Springfield, Sangamon County, Illinois, 62703, United States of America",True
Lincoln College of Technology-Melrose Park,IL,Melrose Park,,,,False
McHenry County College,IL,Crystal Lake,42.2609889,-88.3679603,"McHenry County College, US 14, Crystal Lake, McHenry County, Illinois, 60033, United States of America",True
Moraine Valley Community College,IL,Palos Hills,41.692682,-87.8386466,"Moraine Valley Community College, 9000, College Parkway, Palos Hills, Palos Township, Cook County, Illinois, 60465, United States of America",True
Morrison Institute of Technology,IL,Morrison,,,,False
Morton College,IL,Cicero,41.8242014,-87.7619225,"Morton College, 3801, South Central Avenue, Cicero, Stickney Township, Cook County, Illinois, 60804, United States of America",True
Oakton College,IL,Des Plaines,42.0621465,-87.8805945,"Oakton Community College, 1600, East Golf Road, Des Plaines, Maine Township, Cook County, Illinois, 60016, United States of America",True
Parkland College,IL,Champaign,40.1336555,-88.2908739,"Parkland College, Perimeter Road, Champaign, Champaign County, Illinois, 61822, United States of America",True
Prairie State College,IL,Chicago Heights,41.5242646,-87.6381833,"Prairie State College, 202, South Halsted Street, Chicago Heights, Bloom Township, Cook County, Illinois, 60411, United States of America",True
Rend Lake College,IL,Ina,38.1296923,-88.9205262,"Rend Lake College, 468, Rend Lake Bike Trail, Ina, Jefferson County, Illinois, 62846, United States of America",True
Richland Community College,IL,Decatur,39.8849355,-88.8933499,"Richland Community College, Reas Bridge Road, Decatur, Macon County, Illinois, 62524, United States of America",True
Rock Valley College,IL,Rockford,42.3076052,-88.99464,"Rock Valley College, 3301, North Mulford Road, Rockford, Rockford Township, Winnebago County, Illinois, 61114, United States of America",True
Sauk Valley Community College,IL,Dixon,41.8175151,-89.5974293,"Sauk Valley Community College, 173, Alan Pfeifer Drive, Dixon, Palmyra Township, Lee County, Illinois, 61021, United States of America",True
Shawnee Community College,IL,Ullin,37.2685108,-89.0352123,"Shawnee Community College, Shawnee College Road, Ullin, Pulaski County, Illinois, 62973, United States of America",True
Southeastern Illinois College,IL,Harrisburg,37.7416695,-88.5272466,"Southeastern Illinois College Learning Center, Seright Street, Harrisburg, Saline County, Illinois, 62946, United States of America",True
Spoon River College,IL,Canton,40.5262988,-90.0734354,"Spoon River College, 23235, County Road 22, Canton, Fulton County, Illinois, 61520, United States of America",True
Taylor Business Institute,IL,Chicago,,,,False
Triton College,IL,River Grove,41.9146503,-87.8412803,"Triton College, 2000, North 5th Avenue, River Grove, Leyden Township, Cook County, Illinois, 60171, United States of America",True
Ivy Tech Community College,IN,Indianapolis,39.8048578,-86.1590165,"Ivy Tech Community College, 50, West Fall Creek Parkway, North Drive, Highland Vicinity, Indianapolis, Marion County, Indiana, 46208, United States of America",True
Lincoln College of Technology-Indianapolis,IN,Indianapolis,,,,False
Vincennes University,IN,Vincennes,38.6882751,-87.5194741,"Vincennes University, 1002, East Eberwine Avenue, Vincennes, Knox County, Indiana, 47591, United States of America",True
Des Moines Area Community College,IA,Ankeny,41.7076882,-93.610217,"Des Moines Area Community College, Southwest Campustown Court, Prairie Trail, Ankeny, Polk County, Iowa, 50023, United States of America",True
Ellsworth Community College,IA,Iowa Falls,42.5270568,-93.266609,"Ellsworth Community College, College Street, Iowa Falls, Hardin Township, Hardin County, Iowa, 50126, United States of America",True
Eastern Iowa Community College District,IA,Davenport,,,,False
Hawkeye Community College,IA,Waterloo,42.4249406,-92.3323143,"Hawkeye Community College, 1501, East Orange Road, Orange, Waterloo, Black Hawk County, Iowa, 50704, United States of America",True
Indian Hills Community College,IA,Ottumwa,41.0440635,-92.3916157,"Indian Hills Community College, 525, Grandview Avenue, Ottumwa, Wapello County, Iowa, 52501, United States of America",True
Iowa Central Community College,IA,Fort Dodge,42.489531,-94.2032648,"Iowa Central Community College, 1, Triton Circle, Fort Dodge, Wahkonsa Township, Webster County, Iowa, 50501, United States of America",True
Iowa Lakes Community College,IA,Estherville,43.3971061,-94.8167437,"Iowa Lakes Community College, 7th Avenue South, Estherville, Emmet County, Iowa, 51334, United States of America",True
Iowa Western Community College,IA,Council Bluffs,41.2737404,-95.8003426,"Iowa Western Community College, East Kanesville Boulevard, Council Bluffs, Garner Township, Pottawattamie County, Iowa, 51502, United States of America",True
Kirkwood Community College,IA,Cedar Rapids,41.9064268,-91.6496843,"Kirkwood Community College, Prairie Point Road Southwest, Cedar Rapids, Linn County, Iowa, United States of America",True
Marshalltown Community College,IA,Marshalltown,41.9993973,-92.9052525,"Marshalltown Community College, College Drive, Marshalltown, Marshall Township, Marshall County, Iowa, 50158, United States of America",True
North Iowa Area Community College,IA,Mason City,43.1576201,-93.1316612,"North Iowa Area Community College, NIACC Trail Extension, Eastbrooke, Mason City, Cerro Gordo County, Iowa, United States of America",True
Northeast Iowa Community College,IA,Calmar,43.1674344,-91.8694006,"Northeast Iowa Community College, Charles Street, Calmar, Winneshiek County, Iowa, United States of America",True
Southeastern Community College,IA,West Burlington,40.8153986,-91.180509,"Southeastern Community College, 1500, West Agency Road, West Burlington, Des Moines County, Iowa, 52655, United States of America",True
Western Iowa Tech Community College,IA,Sioux City,42.485049,-96.345615,"Western Iowa Tech Community College, South Lakeport Street, Sioux City, Woodbury County, Iowa, 51106, United States of America",True
Allen County Community College,KS,Iola,37.9382183,-95.3952587,"Allen Community College, 1801, North Cottonwood Street, Iola, Allen County, Kansas, 66749, United States of America",True
Barton County Community College,KS,Great Bend,38.4016355,-98.7331815,"Barton Community College - Barton County Campus, 245, Northeast 30 Road, Great Bend, Barton County, Kansas, 67530, United States of America",True
Butler Community College,KS,El Dorado,37.8059393,-96.8830807,"Butler Community College, 901, Southwest Haverhill Road, El Dorado, Butler County, Kansas, 67042, United States of America",True
Cloud County Community College,KS,Concordia,39.5543598,-97.6647549,"Cloud County Community College, College Drive, Concordia, Cloud County, Kansas, 66901, United States of America",True
Coffeyville Community College,KS,Coffeyville,37.0338801,-95.623118,"Coffeyville Community College, South Spruce Street, Coffeyville, Montgomery County, Kansas, 67337, United States of America",True
Cowley County Community College,KS,Arkansas City,,,,False
Dodge City Community College,KS,Dodge City,37.7771539,-100.0374148,"Dodge City Community College, 2501, North 14th Avenue, Dodge City, Ford County, Kansas, 67801, United States of America",True
Flint Hills Technical College,KS,Emporia,38.417895,-96.2247136,"Flint Hills Technical College, I 35, Coronado Hills, Emporia, Lyon County, Kansas, 66801, United States of America",True
Fort Hays State University,KS,Hays,38.8706832,-99.3442115,"Fort Hays State University, 600, Park Street, Hays, Ellis County, Kansas, 67601, United States of America",True
Fort Scott Community College,KS,Fort Scott,37.8164278,-94.715548,"Fort Scott Community College, 2108, South Horton Street, Fort Scott, Bourbon County, Kansas, 66701, United States of America",True
Garden City Community College,KS,Garden City,37.970075,-100.8496641,"Garden City Community College, 801, Campus Drive, Garden City, Finney County, Kansas, 67846, United States of America",True
Highland Community College,KS,Highland,39.8609334,-95.2722006,"Highland Community College, 606, West Main Street, Highland, Doniphan County, Kansas, 66035, United States of America",True
Hutchinson Community College,KS,Hutchinson,38.0666217,-97.9199357,"Hutchinson Community College, 1300, North Plum Street, Hutchinson, Reno County, Kansas, 67501, United States of America",True
Independence Community College,KS,Independence,37.1940321,-95.7192466,"Independence Community College, 1057, West College Avenue, Independence, Montgomery County, Kansas, 67301, United States of America",True
Johnson County Community College,KS,Overland Park,38.9228761,-94.7306468,"Johnson County Community College, 12345, College Boulevard, Overland Park, Johnson County, Kansas, 66210, United States of America",True
Kansas City Kansas Community College,KS,Kansas City,39.1229393,-94.7483238,"Kansas City Kansas Community College, State Avenue, Kansas City, Wyandotte County, Kansas, 66112, United States of America",True
Washburn Institute of Technology,KS,Topeka,39.0469802,-95.7507349,"Washburn Institute of Technology, Southwest Reeder Street, Topeka, Shawnee County, Kansas, 66636, United States of America",True
Labette Community College,KS,Parsons,37.3391896,-95.2551722,"Labette Community College, Broadway Avenue, Parsons, Labette County, Kansas, 67357, United States of America",True
Manhattan Area Technical College,KS,Manhattan,39.19751,-96.6148102,"Manhattan Area Technical College, 3136, Dickens Avenue, Manhattan, Riley County, Kansas, 66503, United States of America",True
Neosho County Community College,KS,Chanute,37.6695036,-95.4640409,"Neosho County Community College, 800, West 14th Street, Chanute, Neosho County, Kansas, 66720, United States of America",True
Fort Hayes Tech North Central,KS,Beloit,,,,False
Fort Hayes Tech Northwest,KS,Goodland,,,,False
Pratt Community College,KS,Pratt,37.6544738,-98.7119955,"Pratt Community College, KS 61, Pratt, Pratt County, Kansas, 67124, United States of America",True
University of Saint Mary,KS,Leavenworth,39.2778813,-94.904488,"University of Saint Mary, 4100, South 4th Street, Wadsworth, Leavenworth, Leavenworth County, Kansas, 66048, United States of America",True
Salina Area Technical College,KS,Salina,38.7915595,-97.6360995,"Salina Area Technical College, Scanlan Avenue, Salina, Saline County, Kansas, 67401, United States of America",True
Seward County Community College,KS,Liberal,37.0596139,-100.9175848,"Seward County Community College, 1801, North Kansas Avenue, Liberal, Seward County, Kansas, 67901, United States of America",True
Washburn University,KS,Topeka,39.0336986,-95.7015689,"Washburn University, 1700, Southwest College Avenue, Topeka, Shawnee County, Kansas, 66621, United States of America",True
Wichita State University-Campus of Applied Sciences and Technology,KS,Wichita,37.7572059,-97.2251821,"Wichita State University Campus of Applied Sciences and Technology, North Webb Road, Wichita, Sedgwick County, Kansas, 67055, United States of America",True
Wichita Technical Institute,KS,Wichita,,,,False
Ashland Community and Technical College,KY,Ashland,,,,False
Southcentral Kentucky Community and Technical College,KY,Bowling Green,,,,False
Bluegrass Community and Technical College,KY,Lexington,38.0246825,-84.5031829,"Bluegrass Community and Technical College (Cooper), Cooper Drive, University of Kentucky, Lexington, Fayette County, Kentucky, 40546, United States of America",True
Elizabethtown Community and Technical College,KY,Elizabethtown,37.6933741,-85.8788535,"Elizabethtown Community and Technical College, 600, College Street Road, Elizabethtown, Hardin County, Kentucky, 42701, United States of America",True
Hazard Community and Technical College,KY,Hazard,,,,False
Henderson Community College,KY,Henderson,,,,False
Hopkinsville Community College,KY,Hopkinsville,36.8844442,-87.4895414,"Hopkinsville Community College, North Drive, Hopkinsville, Christian County, Kentucky, 42240, United States of America",True
Jefferson Community and Technical College,KY,Louisville,38.2466183,-85.7536613,"Jefferson Community and Technical College, 109, East Broadway, Louisville, Jefferson County, Kentucky, 40202, United States of America",True
Madisonville Community College,KY,Madisonville,37.3618318,-87.5127148,"Madisonville Community College (North Campus), College Drive, Madisonville, Hopkins County, Kentucky, 42431, United States of America",True
Maysville Community and Technical College,KY,Maysville,38.6260685,-83.8059186,"Maysville Community and Technical College, Maysville Community College South, Maysville, Mason County, Kentucky, 41056, United States of America",True
Gateway Community and Technical College,KY,Florence,,,,False
West Kentucky Community and Technical College,KY,Paducah,37.0546403,-88.6581473,"West Kentucky Community and Technical College, I 24, Paducah, McCracken County, Kentucky, 42002, United States of America",True
Big Sandy Community and Technical College,KY,Prestonsburg,,,,False
Somerset Community College,KY,Somerset,37.059736,-84.6166836,"Somerset Community College, North Campus, University of Kentucky Drive, Somerset, Pulaski County, Kentucky, 42533, United States of America",True
Southeast Kentucky Community & Technical College,KY,Cumberland,36.9657423,-82.9983893,"Southeast Kentucky Community and Technical College, College Road, Cumberland, Harlan County, Kentucky, 40823, United States of America",True
Central Louisiana Technical Community College,LA,Alexandria,31.3103019,-92.4465163,"Central Louisiana Technical Community College, Saint James Street, Alexandria, Rapides Parish, Louisiana, 71301, United States of America",True
Delgado Community College,LA,New Orleans,29.9864561,-90.1041742,"Delgado Community College, 615, City Park Avenue, New Orleans, Orleans Parish, Louisiana, 70119, United States of America",True
Nunez Community College,LA,Chalmette,29.9546771,-89.9608471,"Elaine P. Nunez Community College, Fenelon Street, Chalmette, Saint Bernard Parish, Louisiana, 70043, United States of America",True
ITI Technical College,LA,Baton Rouge,,,,False
Louisiana State University and Agricultural & Mechanical College,LA,Baton Rouge,,,,False
Northwest Louisiana Technical Community College,LA,Minden,,,,False
Fletcher Technical Community College,LA,Schriever,29.6915377,-90.8110672,"Fletcher Technical Community College, 1407, LA 311, Magnolia, Rebecca Plantation, Schriever, Terrebonne Parish, Louisiana, 70395, United States of America",True
Remington College-Lafayette Campus,LA,Lafayette,,,,False
SOWELA Technical Community College,LA,Lake Charles,30.2169798,-93.1629852,"SOWELA Technical Community College, 3820, Sen J Bennett Johnston Avenue, Lake Charles, Calcasieu Parish, Louisiana, 70615, United States of America",True
Northshore Technical Community College,LA,Lacombe,,,,False
Central Maine Community College,ME,Auburn,44.1321115,-70.2320624,"Central Maine Community College, 1250, Turner Street, Auburn, Androscoggin County, Maine, 04210, United States of America",True
Eastern Maine Community College,ME,Bangor,44.8245077,-68.7438022,"Eastern Maine Community College, 354, Hogan Road, Bangor, Penobscot County, Maine, 04401, United States of America",True
Kennebec Valley Community College,ME,Fairfield,44.5960286,-69.6101575,"Kennebec Valley Community College, 92, Western Avenue, Fairfield, Somerset County, Maine, 04937, United States of America",True
Northern Maine Community College,ME,Presque Isle,46.6954875,-68.0357646,"Northern Maine Community College, 33, Edgemont Drive, Presque Isle, Aroostook County, Maine, 04769, United States of America",True
Southern Maine Community College,ME,South Portland,43.6472293,-70.229185,"Southern Maine Community College, 2, Fort Road, South Portland, Cumberland County, Maine, 04106, United States of America",True
Washington County Community College,ME,Calais,45.1587229,-67.2614609,"Washington County Community College, 1, College Drive, Calais, Washington County, Maine, 04619, United States of America",True
Allegany College of Maryland,MD,Cumberland,39.6523234,-78.7290617,"Allegany College of Maryland, Old Willow Brook Road Southeast, Cumberland, Allegany County, Maryland, 21502, United States of America",True
College of Southern Maryland,MD,La Plata,38.5589964,-77.0106524,"College of Southern Maryland, 8730, Mitchell Road, Jennie Run Estates, La Plata, Charles County, Maryland, 20646, United States of America",True
North American Trade Schools,MD,Baltimore,39.3471942,-76.7008971,"North American Trade Schools, 5760, Wabash Avenue, Reisterstown Station, Baltimore, Maryland, 21215, United States of America",True
Frederick Community College,MD,Frederick,39.451578,-77.4181668,"Frederick Community College, 7932, Runnymeade Court, Clover Hill, Frederick County, Maryland, 21702, United States of America",True
Garrett College,MD,McHenry,39.5615972,-79.3392137,"Garrett College, Sunset Ridge Drive, McHenry, Garrett County, Maryland, 21541, United States of America",True
Hagerstown Community College,MD,Hagerstown,,,,False
Harford Community College,MD,Bel Air,39.5605328,-76.2830203,"Harford Community College, 401, Thomas Run Road, Oak Dale, Bel Air, Harford County, Maryland, 21015, United States of America",True
Howard Community College,MD,Columbia,39.2115116,-76.8774656,"Howard Community College, Little Patuxent Parkway, Hawthorn North, Wilde Lake, Howard County, Maryland, 21044, United States of America",True
Lincoln College of Technology-Columbia,MD,Columbia,39.1740153,-76.8363726,"Lincoln College of Technology, 9325, Snowden River Parkway, Hopewell, Guilford, Howard County, Maryland, 21046, United States of America",True
Montgomery College,MD,Rockville,39.0985195,-77.1587885,"Montgomery College, 51, Mannakee Street, Westmore, Rockville, Montgomery County, Maryland, 20850, United States of America",True
Prince George's Community College,MD,Largo,38.8868714,-76.8263878,"Prince George's Community College, 301, Largo Road, Largo, Prince George's County, Maryland, 20774, United States of America",True
Assabet Valley Regional Technical School,MA,Marlborough,42.3681574,-71.566141,"Assabet Valley Regional Technical High School, 215, Fitchburg Street, Marlborough, Middlesex County, Massachusetts, 01752, United States of America",True
Springfield Technical Community College,MA,Springfield,42.1085288,-72.5799735,"Springfield Technical Community College, State Street, Upper Worthington Historic District, Springfield, Hampden County, Massachusetts, 01101, United States of America",True
Worcester Polytechnic Institute,MA,Worcester,42.274315,-71.8084567,"Worcester Polytechnic Institute, 100, Institute Road, Massachusetts Avenue Historic District, Hammond Heights, Worcester, Worcester County, Massachusetts, 01609, United States of America",True
Northwestern Technological Institute,MI,Southfield,42.4720799,-83.2388255,"Northwestern Technological Institute, 24800, Northwestern Highway, Southfield, Oakland County, Michigan, 48075, United States of America",True
Baker College,MI,Owosso,42.9840441,-84.1731718,"Baker College, 1020, South Washington Street, Owosso, Shiawassee County, Michigan, 48867, United States of America",True
Bay de Noc Community College,MI,Escanaba,45.7716351,-87.0864384,"Bay de Noc Community College, South 11th Street, Wells, Escanaba, Delta County, Michigan, 49894, United States of America",True
Mott Community College,MI,Flint,43.0203856,-83.6726519,"Mott Community College, 1401, Mott College Drive, Flint, Genesee County, Michigan, 48503, United States of America",True
MIAT College of Technology,MI,Canton,,,,False
Gogebic Community College,MI,Ironwood,46.4736751,-90.1639923,"Gogebic Community College, E4946, Jackson Road, Ironwood, Gogebic County, Michigan, 49938, United States of America",True
Grand Rapids Community College,MI,Grand Rapids,42.9665672,-85.665001,"Grand Rapids Community College, 143, Bostwick Avenue Northeast, Grand Rapids, Kent County, Michigan, 49503, United States of America",True
Lake Michigan College,MI,Benton Harbor,42.0956412,-86.393483,"Lake Michigan College, 2755, East Napier Avenue, Benton Harbor, Berrien County, Michigan, 49022, United States of America",True
Lansing Community College,MI,Lansing,42.7379548,-84.5530234,"Lansing Community College, North Grand Avenue, Downtown, Lansing, Ingham County, Michigan, 48906, United States of America",True
Macomb Community College,MI,Warren,42.5054107,-82.9730483,"Macomb Community College, 14500, East 12 Mile Road, Warren, Macomb County, Michigan, 48088, United States of America",True
Mid Michigan College,MI,Harrison,,,,False
Monroe County Community College,MI,Monroe,41.9165863,-83.4690733,"Monroe County Community College, 1555, South Raisinville Road, Monroe Charter Township, Monroe County, Michigan, 48161, United States of America",True
Montcalm Community College,MI,Sidney,43.2554855,-85.0999137,"Montcalm Community College, 2800, College Drive, Sidney Township, Montcalm County, Michigan, 48885, United States of America",True
Muskegon Community College,MI,Muskegon,43.2495952,-86.1989224,"Muskegon Community College, 221, South Quarterline Road, Muskegon, Muskegon County, Michigan, 49442, United States of America",True
North Central Michigan College,MI,Petoskey,45.3557888,-84.9454474,"North Central Michigan College, 1515, Howard Street, Petoskey, Emmet County, Michigan, 49770, United States of America",True
St Clair County Community College,MI,Port Huron,,,,False
Southwestern Michigan College,MI,Dowagiac,41.9661071,-86.0829737,"Southwestern Michigan College, 58900, Cherry Grove Road, Dowagiac, Cass County, Michigan, 49047, United States of America",True
Michigan Career and Technical Institute,MI,Plainwell,,,,False
Washtenaw Community College,MI,Ann Arbor,42.2631875,-83.6650462,"Washtenaw Community College, 4800, East Huron River Drive, Ann Arbor, Washtenaw County, Michigan, 48105, United States of America",True
Wayne County Community College District,MI,Detroit,,,,False
West Shore Community College,MI,Scottville,44.0098532,-86.3300827,"West Shore Community College, 3000, North Stiles Road, Scottville, Mason County, Michigan, 49454, United States of America",True
Anoka Technical College,MN,Anoka,45.2167365,-93.4165538,"Anoka Technical College, 1355, US 10;US 169, Anoka, Anoka County, Minnesota, 55303, United States of America",True
Riverland Community College,MN,Austin,43.676699,-93.0011044,"Riverland Community College (West Campus), 1900, 8th Avenue Northwest, Austin, Mower County, Minnesota, 55912, United States of America",True
Northwest Technical College,MN,Bemidji,47.4526625,-94.8540989,"Northwest Technical College, 905, Grant Avenue Southeast, Bemidji, Beltrami County, Minnesota, 56601, United States of America",True
Central Lakes College-Brainerd,MN,Brainerd,46.3454119,-94.2170921,"Central Lakes College, West College Drive, Brainerd, Crow Wing County, Minnesota, 56401, United States of America",True
Lake Superior College,MN,Duluth,46.7845476,-92.1452014,"Lake Superior College, 2101, Trinity Road, Duluth Heights, Duluth, Saint Louis County, Minnesota, 55811, United States of America",True
Hennepin Technical College,MN,Brooklyn Park,45.0991885,-93.3990528,"Hennepin Technical College, 9000, Brooklyn Boulevard, Brooklyn Park, Hennepin County, Minnesota, 55445, United States of America",True
Minnesota North College,MN,Hibbing,47.4221372,-92.9206686,"Minnesota North College – Hibbing, 1515, East 25th Street, Hibbing, Saint Louis County, Minnesota, 55746, United States of America",True
South Central College,MN,North Mankato,44.1746648,-94.0464687,"South Central College - North Campus, Lee Boulevard, Riverbend Estates, North Mankato, Nicollet County, Minnesota, 56003, United States of America",True
Minneapolis Community and Technical College,MN,Minneapolis,,,,False
North Hennepin Community College,MN,Brooklyn Park,45.105697,-93.3742081,"North Hennepin Community College, 7411, 85th Avenue North, Brooklyn Park, Hennepin County, Minnesota, 55445, United States of America",True
Northland Community and Technical College,MN,Thief River Falls,,,,False
St Cloud Technical and Community College,MN,Saint Cloud,,,,False
Summit Academy Opportunities Industrialization Center,MN,Minneapolis,,,,False
Dunwoody College of Technology,MN,Minneapolis,44.9731679,-93.2906677,"Dunwoody College of Technology, 818, Dunwoody Boulevard, Lowry Hill, Calhoun Isles, Minneapolis, Hennepin County, Minnesota, 55403, United States of America",True
Ridgewater College,MN,Willmar,45.1382332,-95.0709778,"Ridgewater College, Main Entry, Willmar, Kandiyohi County, Minnesota, 56201, United States of America",True
Minnesota State College Southeast,MN,Winona,44.0243847,-91.6163202,"Minnesota State College Southeast, 1250, Homer Road, Winona, Winona County, Minnesota, 55987, United States of America",True
Century College,MN,White Bear Lake,45.0444049,-92.9880401,"Century College (West Campus), Wood Duck Trail, White Bear Lake, Ramsey County, Minnesota, 55090, United States of America",True
Coahoma Community College,MS,Clarksdale,,,,False
Copiah-Lincoln Community College,MS,Wesson,31.6887608,-90.3936987,"Copiah-Lincoln Community College, Lester Furr Drive, Wesson, Copiah County, Mississippi, 39191, United States of America",True
East Central Community College,MS,Decatur,32.4442966,-89.1119286,"East Central Community College, North 7th Avenue, Decatur, Newton County, Mississippi, 39327, United States of America",True
Hinds Community College,MS,Raymond,32.2537999,-90.4134216,"Hinds Community College, East Main Street, Raymond, Hinds County, Mississippi, 39154, United States of America",True
Holmes Community College,MS,Goodman,32.9704564,-89.9190275,"Holmes Community College Goodman Campus, Hill Street, Goodman, Holmes County, Mississippi, 39079, United States of America",True
Itawamba Community College,MS,Fulton,34.2762012,-88.4159175,"Itawamba Community College, Alton Street, Fulton, Itawamba County, Mississippi, 38843, United States of America",True
Jones County Junior College,MS,Ellisville,31.5947107,-89.2019321,"Jones College, 900, South Court Street, Ellisville, Jones County, Mississippi, 39437, United States of America",True
Meridian Community College,MS,Meridian,32.368001,-88.7322742,"Meridian Community College, 910, Old Highway 80 West, Meridian, Lauderdale County, Mississippi, 39307, United States of America",True
Mississippi Delta Community College,MS,Moorhead,33.4430538,-90.5003499,"Mississippi Delta Community College, East Cherry Street, Moorhead, Sunflower County, Mississippi, 38761, United States of America",True
Mississippi Gulf Coast Community College,MS,Perkinston,30.781599,-89.1435905,"Mississippi Gulf Coast Community College - Perkinston Campus, 51, Perkinston-Silver Run Road, Perkinston, Stone County, Mississippi, 39573, United States of America",True
Northwest Mississippi Community College,MS,Senatobia,34.6235605,-89.9741966,"Northwest Mississippi Community College, 4975, Ranger Drive, Senatobia, Tate County, Mississippi, 38668, United States of America",True
Pearl River Community College,MS,Poplarville,30.8448513,-89.5445413,"Pearl River Community College, 101, Old Stadium Road, Poplarville, Pearl River County, Mississippi, 39470, United States of America",True
Southwest Mississippi Community College,MS,Summit,,,,False
Cape Girardeau Career and Technology Center,MO,Cape Girardeau,37.2738889,-89.564897,"Cape Girardeau Career and Technology Center, 1080, South Silver Springs Road, Cape Girardeau, Cape Girardeau County, Missouri, 63703, United States of America",True
Grand River Technical School,MO,Chillicothe,39.798975,-93.5603347,"Grand River Technical School, Springhill Street, Chillicothe, Livingston County, Missouri, 64601, United States of America",True
East Central College,MO,Union,38.4287966,-90.9759451,"East Central College, 1964, Prairie Dell Road, Union, Franklin County, Missouri, 63084, United States of America",True
Pinnacle Career Institute,MO,Kansas City,,,,False
Four Rivers Career Center,MO,Washington,38.5476747,-91.0209098,"Four Rivers Career Center, 1978, Image Drive, Washington, Franklin County, Missouri, 63090, United States of America",True
Ozarks Technical Community College,MO,Springfield,37.2166702,-93.2795511,"Ozarks Technical Community College, 1001, East Chestnut Expressway, Weller, Midtown, Springfield, Greene County, Missouri, 65802, United States of America",True
Jefferson College,MO,Hillsboro,38.2603041,-90.5586659,"Jefferson College, 1000, Viking Drive, Hillsboro, Central Township, Jefferson County, Missouri, 63050, United States of America",True
Lex La-Ray Technical Center,MO,Lexington,39.1736529,-93.8655012,"Lex La-Ray Technical Center, 2323, High School Drive, Lexington, Lafayette County, Missouri, 64067, United States of America",True
State Technical College of Missouri,MO,Linn,38.4683242,-91.8118347,"State Technical College of Missouri, 1, Technology Drive, Linn, Osage County, Missouri, 65051, United States of America",True
Metropolitan Community College-Kansas City,MO,Kansas City,39.1381617,-94.5024275,"Metropolitan Community College, 1775, Universal Avenue, Kansas City, Jackson County, Missouri, 64120, United States of America",True
Mineral Area College,MO,Park Hills,37.844746,-90.4811411,"Mineral Area College, MO O, Park Hills, Saint Francois County, Missouri, 63601, United States of America",True
Missouri Valley College,MO,Marshall,39.1064411,-93.1907708,"Missouri Valley College, 500, East College Street, Marshall, Saline County, Missouri, 65340, United States of America",True
College of the Ozarks,MO,Point Lookout,36.617958,-93.2365038,"College of the Ozarks, 100, Hollister, Taney County, Missouri, 65726, United States of America",True
Poplar Bluff Technical Career Center,MO,Poplar Bluff,,,,False
Ranken Technical College,MO,Saint Louis,38.6534824,-90.2492178,"Ranken Technical College, Page Boulevard, Lewis Place, Saint Louis, Missouri, 63113, United States of America",True
Saint Louis Community College,MO,Bridgeton,,,,False
State Fair Community College,MO,Sedalia,38.6963394,-93.2705725,"State Fair Community College, West 16th Street, Sedalia, Pettis County, Missouri, 65301, United States of America",True
Stephens College,MO,Columbia,38.9505943,-92.3229551,"Stephens College, 1200, East Broadway, Strollway, Columbia, Columbia Township, Boone County, Missouri, 65216, United States of America",True
Three Rivers College,MO,Poplar Bluff,36.7763518,-90.430561,"Three Rivers College, Three Rivers Boulevard, Poplar Bluff, Butler County, Missouri, 63901, United States of America",True
Blackfeet Community College,MT,Browning,48.5523,-113.0087867,"Blackfeet Community College, Southeast Boundary Street, Browning, Glacier County, Montana, 59427, United States of America",True
Highlands College of Montana Tech,MT,Butte,45.9376976,-112.5097421,"Highlands College, Basin Creek Road, Butte, Silver Bow County, Montana, 59701, United States of America",True
Carroll College,MT,Helena,46.6018191,-112.0385011,"Carroll College, Hunthausen Way, Mansion District, Helena, Lewis and Clark County, Montana, 59625, United States of America",True
Dawson Community College,MT,Glendive,47.0855421,-104.7249147,"Dawson Community College, 300, College Drive, Glendive, Dawson County, Montana, 59330, United States of America",True
Montana State University Billings,MT,Billings,45.797005,-108.5215582,"Montana State University Billings, 1500, North 27th Street, Billings, Yellowstone County, Montana, 59101, United States of America",True
Flathead Valley Community College,MT,Kalispell,48.2310428,-114.3223222,"Flathead Valley Community College, 777, Grandview Drive, Kalispell, Flathead County, Montana, 59901, United States of America",True
Aaniiih Nakoda College,MT,Harlem,,,,False
Fort Peck Community College,MT,Poplar,48.11356,-105.19287,"Fort Peck Community College, Tribal Street, Poplar District / waȟnéca wakpá / waxchį́ca wakpá, Roosevelt County, Montana, 59255, United States of America",True
Great Falls College Montana State University,MT,Great Falls,,,,False
Miles Community College,MT,Miles City,46.4068757,-105.8246917,"Miles Community College Track, Bridge Street, Westwood Estates, Miles City, Custer County, Montana, 59301, United States of America",True
Montana Technological University,MT,Butte,,,,False
Montana State University,MT,Bozeman,45.6639222,-111.079277,"Montana State University, 100, Stucky Road, The Arrow Townhomes & Flats, Bozeman, Gallatin County, Montana, 59715, United States of America",True
Montana State University-Northern,MT,Havre,48.5412308,-109.6853331,"Montana State University - Northern, 300, 13th Street West, Havre, Hill County, Montana, 59501, United States of America",True
Salish Kootenai College,MT,Pablo,47.5949819,-114.1067478,"Salish Kootenai College, 58138, Joe McDonald Drive, Pablo, Lake County, Montana, 59855, United States of America",True
Central Community College,NE,Grand Island,40.8910772,-98.3727408,"Central Community College - Grand Island Campus, Tech Drive, Grand Island, Hall County, Nebraska, 68801, United States of America",True
Metropolitan Community College Area,NE,Omaha,,,,False
Mid-Plains Community College,NE,North Platte,,,,False
Nebraska Indian Community College,NE,Macy,42.116489,-96.3519512,"Nebraska Indian Community College - Macy Campus, 1111, Highway 75, Macy, Thurston County, Nebraska, 68039, United States of America",True
Northeast Community College,NE,Norfolk,42.0516935,-97.3948963,"Northeast Community College, 801, East Benjamin Avenue, Norfolk, Madison County, Nebraska, 68701, United States of America",True
Southeast Community College Area,NE,Lincoln,,,,False
Nebraska College of Technical Agriculture,NE,Curtis,,,,False
Western Nebraska Community College,NE,Scottsbluff,41.8768737,-103.6435856,"Western Nebraska Community College - Scottsbluff Campus, 12th Avenue, Scottsbluff, Scotts Bluff County, Nebraska, 69361, United States of America",True
College of Southern Nevada,NV,Las Vegas,36.0065097,-114.9675522,"College of Southern Nevada, Mosswood Drive, Henderson, Clark County, Nevada, 89015, United States of America",True
Great Basin College,NV,Elko,40.8429466,-115.7663214,"Great Basin College, 1500, College Parkway, Elko, Elko County, Nevada, 89801, United States of America",True
Truckee Meadows Community College,NV,Reno,39.572049,-119.7981617,"TMCC - Dandini Campus;Truckee Meadows Community College, Dandini Boulevard, Reno, Washoe County, Nevada, 89512, United States of America",True
Western Nevada College,NV,Carson City,39.1864064,-119.7905599,"Western Nevada College, Planet Path, Carson City, Nevada, 89703, United States of America",True
White Mountains Community College,NH,Berlin,44.5035101,-71.1585465,"White Mountains Community College, 2020, Riverside Drive, Berlin, Coös County, New Hampshire, 03570, United States of America",True
Lakes Region Community College,NH,Laconia,43.5079426,-71.4623998,"Lakes Region Community College, Belmont Road, Laconia, Belknap County, New Hampshire, 03246, United States of America",True
Manchester Community College,NH,Manchester,43.0194045,-71.4836855,"Manchester Community College, Everett Turnpike, Northwest, Manchester, Hillsborough County, New Hampshire, 03105, United States of America",True
Nashua Community College,NH,Nashua,42.7979348,-71.5237629,"Nashua Community College, Amherst Street, Ward 2, Nashua, Hillsborough County, New Hampshire, 03063, United States of America",True
Great Bay Community College,NH,Portsmouth,43.0720544,-70.799237,"Great Bay Community College, Corporate Drive, Pease International Tradeport, Portsmouth, Rockingham County, New Hampshire, 03801, United States of America",True
Atlantic Cape Community College,NJ,Mays Landing,,,,False
Camden County College,NJ,Blackwood,39.7848574,-75.0390822,"Camden County College, 200, College Drive, Davisville, Gloucester Township, Camden County, New Jersey, 08012, United States of America",True
Adult and Continuing Education-BCTS,NJ,Hackensack,,,,False
County College of Morris,NJ,Randolph,40.8582439,-74.5799673,"County College of Morris, NJ 10, Mount Fern, Randolph Township, Morris County, New Jersey, 07869, United States of America",True
Rowan College of South Jersey-Cumberland Campus,NJ,Vineland,,,,False
Lincoln Technical Institute-South Plainfield,NJ,South Plainfield,,,,False
Essex County College,NJ,Newark,40.7388595,-74.1782,"Essex County College, Campbell Street, Teachers Village, The Ironbound, Newark, Essex County, New Jersey, 07102, United States of America",True
Hudson County Community College,NJ,Jersey City,40.7305152,-74.0637026,"Hudson County Community College - Building X, 26, Enos Place, Hilltop, Bergen Square, Journal Square, Jersey City, Hudson County, New Jersey, 07306, United States of America",True
Lincoln Technical Institute-Union,NJ,Union,40.7066524,-74.2750448,"Lincoln Technical Institute, Vauxhall Road, Unionburg, Union, Union County, New Jersey, 07083, United States of America",True
Mercer County Community College,NJ,West Windsor,40.2554361,-74.6499884,"Mercer County Community College, 1200, Old Trenton Road, Edinburg, West Windsor, Mercer County, New Jersey, 08850, United States of America",True
Passaic County Community College,NJ,Paterson,40.9175222,-74.1691347,"Passaic County Community College, 1, College Boulevard, Paterson, Passaic County, New Jersey, 07505, United States of America",True
Central New Mexico Community College,NM,Albuquerque,,,,False
Navajo Technical University,NM,Crownpoint,35.6870811,-108.1473593,"Navajo Technical University, Lower Point Road, Crownpoint, Eastern Navajo Agency / Tʼiistsʼóóz Ńdeeshgizh Bił Hahoodzo biyiʼdi, McKinley County, New Mexico, 87313, United States of America",True
New Mexico State University-Dona Ana,NM,Las Cruces,32.2729032,-106.7434927,"New Mexico State University, 1780, East University Avenue, Las Cruces, Doña Ana County, New Mexico, 88003, United States of America",True
New Mexico Junior College,NM,Hobbs,32.7578619,-103.1837931,"New Mexico Junior College, 1, Thunderbird Circle, Hobbs, Lea County, New Mexico, 88240, United States of America",True
University of New Mexico-Gallup Campus,NM,Gallup,,,,False
University of New Mexico-Los Alamos Campus,NM,Los Alamos,,,,False
Northern New Mexico College,NM,Espanola,36.0029219,-106.0833061,"Northern New Mexico College, 921, North Paseo de Onate, El Guacho, Espanola, Rio Arriba County, New Mexico, 87532, United States of America",True
Santa Fe Community College,NM,Santa Fe,35.603432,-105.993333,"Santa Fe Community College, 6401, Richards Avenue, Santa Fe County, New Mexico, 87508, United States of America",True
University of New Mexico-Taos Campus,NM,Ranchos de Taos,,,,False
Columbia-Greene Community College,NY,Hudson,,,,False
CUNY New York City College of Technology,NY,Brooklyn,,,,False
Dutchess Community College,NY,Poughkeepsie,41.7261284,-73.8997412,"Dutchess Community College, 53, Pendell Road, City of Poughkeepsie, Town of Poughkeepsie, Dutchess County, New York, 12601, United States of America",True
Fulton-Montgomery Community College,NY,Johnstown,,,,False
Genesee Community College,NY,Batavia,43.0160577,-78.1403525,"Genesee Community College, Town of Batavia, Genesee County, New York, United States of America",True
Hudson Valley Community College,NY,Troy,42.6963889,-73.6841667,"Hudson Valley Community College, Cross Road, City of Troy, Town of North Greenbush, Rensselaer County, New York, 12180, United States of America",True
Island Drafting and Technical Institute,NY,Amityville,,,,False
Jamestown Community College,NY,Jamestown,42.1146391,-79.2200252,"Jamestown Campus Jamestown Community College, Durant Avenue, Jamestown, Chautauqua County, New York, 14701, United States of America",True
Modern Welding School,NY,Schenectady,42.7790212,-73.9031789,"Modern Welding School, Inc., 1842, State Street, Woodlawn, City of Schenectady, Schenectady County, New York, 12304, United States of America",True
Mohawk Valley Community College,NY,Utica,43.076606,-75.2166599,"Mohawk Valley Community College, 1101, Sherman Drive, City of Utica, Oneida County, New York, 13501, United States of America",True
Monroe Community College,NY,Rochester,43.1014465,-77.6099191,"Monroe Community College, 1000, East Henrietta Road, City of Rochester, Monroe County, New York, 14623, United States of America",True
Onondaga Community College,NY,Syracuse,43.0056477,-76.1973428,"Onondaga Community College, 4585, West Seneca Turnpike, City of Syracuse, Town of Onondaga, Onondaga County, New York, 13215, United States of America",True
Sullivan County Community College,NY,Loch Sheldrake,41.7624742,-74.6684317,"SUNY Sullivan County Community College, 112, College Road, Loch Sheldrake, Town of Fallsburg, Sullivan County, New York, 12759, United States of America",True
Tompkins Cortland Community College,NY,Dryden,42.5013133,-76.2867182,"Tompkins Cortland Community College, 170, North Road, Lacy Corners, Village of Dryden, Town of Dryden, Tompkins County, New York, 13053, United States of America",True
College of the Albemarle,NC,Elizabeth City,36.2953018,-76.2178655,"College of the Albemarle Canoe Launch, Elizabeth City, Pasquotank County, North Carolina, United States of America",True
South Piedmont Community College,NC,Polkton,35.0002709,-80.2116204,"South Piedmont Community College - LL Polk Campus, Horne-Town Road, Polkton, Anson County, North Carolina, 28135, United States of America",True
Asheville-Buncombe Technical Community College,NC,Asheville,35.5707505,-82.555557,"Asheville-Buncombe Technical Community College, Tech Drive, Asheville, Buncombe County, North Carolina, 28801, United States of America",True
Bladen Community College,NC,Dublin,34.6457214,-78.7318752,"Bladen Community College, 7418, NC 41, Dublin, Bladen County, North Carolina, 28332, United States of America",True
Brunswick Community College,NC,Bolivia,34.0391692,-78.2302355,"Brunswick Community College, 50, Old Ocean Highway, Piney Grove, Bolivia, Brunswick County, North Carolina, 28422, United States of America",True
Caldwell Community College and Technical Institute,NC,Hudson,35.8542429,-81.4839733,"Caldwell Community College and Technical Institute, 2855, Hickory Boulevard, Hudson, Caldwell County, North Carolina, 28638, United States of America",True
Cape Fear Community College,NC,Wilmington,34.2405455,-77.9487806,"Cape Fear Community College, 610, North Front Street, Wilmington, New Hanover County, North Carolina, 28401, United States of America",True
Carteret Community College,NC,Morehead City,34.7234897,-76.7551009,"Carteret Community College, 3505, Arendell Street, Carolina City, Morehead City, Carteret County, North Carolina, 28557, United States of America",True
Catawba Valley Community College,NC,Hickory,35.6973179,-81.2882332,"Catawba Valley Community College, 2250, Catawba Valley Boulevard Southeast, Fairbrook, Hickory, Catawba County, North Carolina, 28602, United States of America",True
Central Carolina Community College,NC,Sanford,35.4720985,-79.1433548,"Central Carolina Community College, Kelly Drive, Sanford, Lee County, North Carolina, 27330, United States of America",True
Central Piedmont Community College,NC,Charlotte,35.2177789,-80.8296588,"Central Piedmont Community College, Armory Drive, Elizabeth, Plaza Midwood, Charlotte, Mecklenburg County, North Carolina, 28204, United States of America",True
Coastal Carolina Community College,NC,Jacksonville,34.7721901,-77.3840242,"Coastal Carolina Community College, 444, Western Boulevard, Jacksonville, Onslow County, North Carolina, 28546, United States of America",True
Craven Community College,NC,New Bern,35.1113402,-77.1031665,"Craven Community College, 800, College Court, New Bern, Craven County, North Carolina, 28562, United States of America",True
Durham Technical Community College,NC,Durham,35.9754139,-78.8818704,"Durham Technical Community College, Bacon Street, Durham, Durham County, North Carolina, 27707, United States of America",True
Edgecombe Community College,NC,Tarboro,35.8795248,-77.5729764,"Edgecombe Community College, 2009, West Wilson Street, Tarboro, Edgecombe County, North Carolina, 27886, United States of America",True
Fayetteville Technical Community College,NC,Fayetteville,35.0686419,-78.9265526,"Fayetteville Technical Community College Campus, 2201, Hull Road, Vanstory Hills, Fayetteville, Cumberland County, North Carolina, 28303, United States of America",True
Forsyth Technical Community College,NC,Winston-Salem,36.0671567,-80.2716318,"Forsyth Technical Community College, Geneva Road, Winston-Salem, Forsyth County, North Carolina, 27157, United States of America",True
Guilford Technical Community College,NC,Jamestown,36.0012733,-79.9150845,"Guilford Technical Community College, 601, East Main Street, Jamestown, Guilford County, North Carolina, 27282, United States of America",True
Halifax Community College,NC,Weldon,36.4274073,-77.6167242,"Halifax Community College, 100, College Drive, Weldon, Halifax County, North Carolina, 27890, United States of America",True
Haywood Community College,NC,Clyde,35.5248303,-82.9273647,"Haywood Community College, 185, Freedlander Drive, Clyde, Haywood County, North Carolina, 28721, United States of America",True
Johnston Community College,NC,Smithfield,35.5008875,-78.3327477,"Johnston Community College, Jaguar Drive, Smithfield, Johnston County, North Carolina, 27577, United States of America",True
Lenoir Community College,NC,Kinston,35.2343151,-77.5723808,"Lenoir Community College, Trustee Court, Kinston, Lenoir County, North Carolina, 28502, United States of America",True
Martin Community College,NC,Williamston,35.8346682,-77.0977588,"Martin Community College, 1161, State Road 1182, Williamston, Martin County, North Carolina, 27892, United States of America",True
Mayland Community College,NC,Spruce Pine,35.9362392,-82.0196119,"Mayland Community College, 200, Mayland Drive, Spruce Pine, Avery County, North Carolina, 28777, United States of America",True
McDowell Technical Community College,NC,Marion,35.6561177,-81.9620185,"McDowell Technical Community College, 54, College Drive, Marion, McDowell County, North Carolina, 28752, United States of America",True
Mitchell Community College,NC,Statesville,35.7828082,-80.8942738,"Mitchell Community College, 500, West Broad Street, Cloverdale, Statesville, Iredell County, North Carolina, 28677, United States of America",True
Piedmont Community College,NC,Roxboro,36.4314927,-78.9803942,"Piedmont Community College, 1715, College Drive, Cal-Vel, Roxboro, Person County, North Carolina, 27573, United States of America",True
Pitt Community College,NC,Winterville,35.5512396,-77.4099923,"Pitt Community College, Bulldog Run, Winterville, Pitt County, North Carolina, 28950, United States of America",True
Randolph Community College,NC,Asheboro,35.6740061,-79.8274388,"Randolph Community College (NB), Industrial Park Avenue, Asheboro, Randolph County, North Carolina, 27205, United States of America",True
Richmond Community College,NC,Hamlet,34.9048533,-79.7098433,"Richmond Community College, 1042, West Hamlet Avenue, Hamlet, Richmond County, North Carolina, 28345, United States of America",True
Roanoke-Chowan Community College,NC,Ahoskie,36.3261617,-77.0227061,"Roanoke-Chowan Community College, 109, Community College Road, Ahoskie, Hertford County, North Carolina, 27910, United States of America",True
Saint Augustine's University,NC,Raleigh,,,,False
Sampson Community College,NC,Clinton,34.9905451,-78.360337,"Sampson Community College, 1801, Sunset Avenue, Sampson Crossing Shopping Center, Johnsontown, Clinton, Sampson County, North Carolina, 28328, United States of America",True
Sandhills Community College,NC,Pinehurst,35.2210115,-79.4063423,"Sandhills Community College, 3395, Airport Road, Pinehurst, Moore County, North Carolina, 28374, United States of America",True
Southeastern Community College,NC,Whiteville,34.3323181,-78.7837432,"Southeastern Community College, 4564, Chadbourn Highway, Peacocks, Whiteville, Columbus County, North Carolina, 28472, United States of America",True
Stanly Community College,NC,Albemarle,35.3378984,-80.2348372,"Stanly Community College, 141, College Drive, Park West, Albemarle, Stanly County, North Carolina, 28001, United States of America",True
Surry Community College,NC,Dobson,36.3842863,-80.7201997,"Surry Community College, Nixon Lane, Dobson, Surry County, North Carolina, 27017, United States of America",True
Alamance Community College,NC,Graham,36.06457,-79.3591113,"Alamance Community College, Haw River Trail, Graham, Alamance County, North Carolina, 27258, United States of America",True
Tri-County Community College,NC,Murphy,35.0676624,-83.966395,"Tri-County Community College, 21, NC 141, Murphy, Cherokee County, North Carolina, 28906, United States of America",True
Vance-Granville Community College,NC,Henderson,,,,False
Wake Technical Community College,NC,Raleigh,35.868117,-78.5417272,"Wake Technical Community College: Scott Northern Wake Campus, 6600, Louisburg Road, Raleigh, Wake County, North Carolina, 27616, United States of America",True
Wayne Community College,NC,Goldsboro,35.4018772,-77.9434443,"Wayne Community College, 3000, Wayne Memorial Drive, Goldsboro, Wayne County, North Carolina, 27534, United States of America",True
Western Piedmont Community College,NC,Morganton,35.7221452,-81.6878995,"Western Piedmont Community College, 1001, Burkemont Avenue, Magnolia, Morganton, Burke County, North Carolina, 28655, United States of America",True
Wilkes Community College,NC,Wilkesboro,36.1355152,-81.1830366,"Wilkes Community College, 1328, South Collegiate Drive, Westwood Hills, Wilkesboro, Wilkes County, North Carolina, 28697, United States of America",True
Bismarck State College,ND,Bismarck,46.8209518,-100.8156833,"Bismarck State College, Pioneer Drive, Bismarck, Burleigh County, North Dakota, 58505, United States of America",True
Dickinson State University,ND,Dickinson,46.8827077,-102.8011777,"Dickinson State University, 13th Avenue West, Dickinson, Stark County, North Dakota, 58602, United States of America",True
Nueta Hidatsa Sahnish College,ND,New Town,47.983351,-102.473225,"Nueta Hidatsa Sahnish College, 7th Avenue East, New Town, Shell Creek Segment, Mountrail County, North Dakota, 58763, United States of America",True
North Dakota State College of Science,ND,Wahpeton,46.2767047,-96.6131324,"North Dakota State College of Science, Wahpeton Indian School, Wahpeton, Richland County, North Dakota, 58076, United States of America",True
Williston State College,ND,Williston,48.1577554,-103.6113657,"Williston State College, 1410, University Avenue, Williston, Williams County, North Dakota, 58801, United States of America",True
Sitting Bull College,ND,Fort Yates,46.0854188,-100.6736985,"Sitting Bull College, State Highway 24, Fort Yates, Sioux County, North Dakota, 58538, United States of America",True
United Tribes Technical College,ND,Bismarck,46.7646593,-100.757761,"United Tribes Technical College, 3315, University Drive, Bismarck, Burleigh County, North Dakota, 58504, United States of America",True
Apollo Career Center,OH,Lima,,,,False
Ashtabula County Technical and Career Campus,OH,Jefferson,,,,False
Auburn Career Center,OH,Concord Twp,,,,False
Belmont College,OH,St Clairsville,,,,False
Bryant & Stratton College-Parma,OH,Parma,41.4041266,-81.7818032,"Bryant & Stratton College-Parma, 12955, Snow Road, Parma, Cuyahoga County, Ohio, 44130, United States of America",True
Buckeye Hills Career Center,OH,Rio Grande,,,,False
Butler Technology and Career Development Schools,OH,Monroe,,,,False
Canton City Schools Adult Career and Technical Education,OH,Canton,,,,False
University of Cincinnati-Main Campus,OH,Cincinnati,,,,False
Cincinnati State Technical and Community College,OH,Cincinnati,39.150007,-84.5368081,"Cincinnati State Technical and Community College, Ludlow Avenue, Cumminsville, Millvale, Cincinnati, Hamilton County, Ohio, 45223, United States of America",True
University of Cincinnati-Clermont College,OH,Batavia,39.0804492,-84.1957514,"University of Cincinnati Clermont College, 4200, Clermont College Drive, Batavia, Batavia Township, Clermont County, Ohio, 45103, United States of America",True
Clark State College,OH,Springfield,39.8977642,-83.7991172,"Clark State Community College, Tibbetts Avenue, Springfield, Clark County, Ohio, 45505, United States of America",True
Columbus State Community College,OH,Columbus,39.9690276,-82.9875631,"Columbus State Community College, North 6th Street, Warehouse District, Columbus, Franklin County, Ohio, 43216, United States of America",True
Cuyahoga Community College District,OH,Cleveland,41.4992612,-81.6921151,"Cuyahoga Community College Hospitality Management Center, 180, Euclid Avenue, Downtown Cleveland, Cleveland, Cuyahoga County, Ohio, 44113, United States of America",True
Edison State Community College,OH,Piqua,40.1589613,-84.2111034,"Edison State Community College, Edison Drive, Piqua, Miami County, Ohio, 45356, United States of America",True
EHOVE Career Center,OH,Milan,,,,False
Great Oaks Career Campuses,OH,Cincinnati,39.2876386,-84.4159184,"Great Oaks District Office, 110, Great Oaks Drive, Cincinnati, Hamilton County, Ohio, 45241, United States of America",True
Fort Hayes Metropolitan Education Center,OH,,,,,False
Hobart Institute of Welding Technology,OH,Troy,40.0541795,-84.219811,"Hobart Institute of Welding Technology, Fleet Road, Troy, Miami County, Ohio, 45373, United States of America",True
Hocking College,OH,Nelsonville,39.4430521,-82.2213275,"Hocking Technical College, Hockhocking Adena Bikeway, Nelsonville, Trimble Township, Athens County, Ohio, 45764, United States of America",True
Kent State University at Tuscarawas,OH,New Philadelphia,,,,False
Kent State University at Salem,OH,Salem,,,,False
Lake Erie College,OH,Painesville,41.7169934,-81.2518413,"Lake Erie College, Gillett Street, West Walnut Estates, Painesville, Lake County, Ohio, 44077, United States of America",True
Lakeland Community College,OH,Kirtland,41.6392917,-81.3644777,"Lakeland Community College, 7700, Clocktower Drive, Kirtland, Lake County, Ohio, 44094, United States of America",True
Collins Career Technical Center,OH,Chesapeake,,,,False
Ohio Business College-Sheffield,OH,Sheffield Village,,,,False
Lorain County Community College,OH,Elyria,41.4134338,-82.0725031,"Lorain County Community College, 1005, North Abbe Road, College Green, Elyria, Lorain County, Ohio, 44035, United States of America",True
Zane State College,OH,Zanesville,39.9616689,-82.0333065,"Zane State College, 1555, Newark Road, Licking View, Zanesville, Muskingum County, Ohio, 43701, United States of America",True
North Central State College,OH,Mansfield,40.7995487,-82.5816907,"North Central State College, 2441, Kenwood Circle, Mansfield, Richland County, Ohio, 44906, United States of America",True
Northwest State Community College,OH,Archbold,41.4523971,-84.2985428,"Northwest State Community College, 22600, SR 34, Archbold, Ridgeville Township, Henry County, Ohio, 43502, United States of America",True
University of Northwestern Ohio,OH,Lima,40.7617103,-84.1605503,"University of Northwestern Ohio, 1441, North Cable Road, Lima, Allen County, Ohio, 45805, United States of America",True
Ohio Technical College,OH,Cleveland,41.5181355,-81.6574231,"Ohio Technical College, East 49th Street, Goodrich-Kirtland Park, Cleveland, Cuyahoga County, Ohio, 44103, United States of America",True
Ohio University-Lancaster Campus,OH,Lancaster,39.7390501,-82.5862946,"Ohio University Lancaster Campus, 1570, Granville Pike, Wacker Heights, Lancaster, Pleasant Township, Fairfield County, Ohio, 43130, United States of America",True
Ohio University-Main Campus,OH,Athens,,,,False
Owens Community College,OH,Perrysburg,,,,False
Cuyahoga Valley Career Center,OH,Brecksville,41.3446588,-81.6240836,"Cuyahoga Valley Career Center, 8001, Brecksville Road, Brecksville, Cuyahoga County, Ohio, 44141, United States of America",True
Fortis College-Centerville,OH,Centerville,39.6456722,-84.1510685,"Fortis College, Courtin Drive, Allure Apartments, Centerville, Montgomery County, Ohio, 45459, United States of America",True
University of Rio Grande,OH,Rio Grande,38.8788275,-82.3760292,"University of Rio Grande and Rio Grande Community College, East Lewis Avenue, Rio Grande, Gallia County, Ohio, 45674, United States of America",True
Sinclair Community College,OH,Dayton,39.7566397,-84.1988565,"Sinclair Community College, 444, Court Street, Dayton Terra-Cotta Historic District, Dayton, Montgomery County, Ohio, 45402, United States of America",True
Stark State College,OH,North Canton,40.9003817,-81.438828,"Stark State College, 8252, Frank Avenue Northwest, North Canton, Jackson Township, Stark County, Ohio, 44720, United States of America",True
Stautzenberger College-Maumee,OH,Maumee,,,,False
Southern State Community College,OH,Hillsboro,39.2372058,-83.6129463,"Southern State Community College, 100, Hobart Drive, Hillsboro, Highland County, Ohio, 45133, United States of America",True
Terra State Community College,OH,Fremont,,,,False
Tri-County Adult Career Center,OH,Nelsonville,,,,False
Tri-Rivers Career Center,OH,Marion,40.5834208,-83.0701384,"Tri-Rivers Career Center & Center for Adult Education, 2222, Marion-Mt Gilead Road, Claridon Township, Marion County, Ohio, 43302, United States of America",True
Upper Valley Career Center,OH,Piqua,,,,False
Washington State Community College,OH,Marietta,39.4311947,-81.4344353,"Washington State Community College, Colegate Drive, Norwood, Marietta, Washington County, Ohio, 45750, United States of America",True
Youngstown State University,OH,Youngstown,41.1067218,-80.6477542,"Youngstown State University, 1, University Plaza, YSU, Youngstown, Mahoning County, Ohio, 44555, United States of America",True
Redlands Community College,OK,El Reno,35.5193582,-97.9749894,"Redlands Community College, 1300, South Country Club Road, El Reno, Canadian County, Oklahoma, 73036, United States of America",True
Langston University,OK,Langston,35.9474137,-97.2647419,"Langston University, Choctaw Road, Langston, Logan County, Oklahoma, 73050, United States of America",True
Murray State College,OK,Tishomingo,,,,False
Northern Oklahoma College,OK,Tonkawa,36.6774106,-97.2962914,"Northern Oklahoma College, South Walnut Street, Tonkawa, Kay County, Oklahoma, 74653, United States of America",True
Oklahoma Panhandle State University,OK,Goodwell,36.5941993,-101.6334273,"United Methodist Student Center at Oklahoma Panhandle State University, Olson, Goodwell, Texas County, Oklahoma, United States of America",True
Oklahoma City Community College,OK,Oklahoma City,35.3883783,-97.5695971,"Oklahoma City Community College, 7777, South May Avenue, Oklahoma City, Oklahoma County, Oklahoma, 73159, United States of America",True
Oklahoma State University Institute of Technology,OK,Okmulgee,35.6304629,-95.9395482,"Oklahoma State University Institute of Technology, Okmulgee, Okmulgee County, Oklahoma, United States of America",True
Rose State College,OK,Midwest City,35.4438957,-97.4148934,"Rose State College, Johnson Boulevard, Midwest City, Oklahoma County, Oklahoma, 73110, United States of America",True
Tulsa Community College,OK,Tulsa,36.0424974,-95.8621602,"Tulsa Community College, 10300, East 81st Street South, South Towne Square, Tulsa, Tulsa County, Oklahoma, 74133, United States of America",True
High Plains Technology Center,OK,Woodward,,,,False
Blue Mountain Community College,OR,Pendleton,45.6764004,-118.8167662,"Blue Mountain Community College, Northwest 23rd Street, Pendleton, Umatilla County, Oregon, 97801, United States of America",True
Central Oregon Community College,OR,Bend,44.070687,-121.3484377,"Central Oregon Community College, Northwest College Way, Bend, Deschutes County, Oregon, 97703, United States of America",True
Chemeketa Community College,OR,Salem,44.9772777,-122.9782503,"Chemeketa Community College, 4000, Cooley Drive Northeast, Hayesville, Salem, Marion County, Oregon, 97305, United States of America",True
Clackamas Community College,OR,Oregon City,45.3246707,-122.5735504,"Clackamas Community College, 19600, Molalla Avenue, Caufield, Oregon City, Clackamas County, Oregon, 97045, United States of America",True
Clatsop Community College,OR,Astoria,46.1832381,-123.8235376,"Clatsop Community College, 1651, Lexington Avenue, Downtown, Astoria, Clatsop County, Oregon, 97103, United States of America",True
Lane Community College,OR,Eugene,44.0097885,-123.0327645,"Lane Community College, 4000, East 30th Avenue, Eugene, Lane County, Oregon, 97405, United States of America",True
Linn-Benton Community College,OR,Albany,44.5858111,-123.1150576,"Linn-Benton Community College, Looney Lane Southwest, Albany, Linn County, Oregon, 97389, United States of America",True
Mt Hood Community College,OR,Gresham,45.5142663,-122.395848,"Mount Hood Community College, 26000, Southeast Stark Street, Sunrise, Gresham, Multnomah County, Oregon, 97060, United States of America",True
Portland Community College,OR,Portland,,,,False
Rogue Community College,OR,Grants Pass,42.4113666,-123.3928132,"Rogue Community College, 3345, Redwood Highway, Grants Pass, Josephine County, Oregon, 97527, United States of America",True
Southwestern Oregon Community College,OR,Coos Bay,43.3960793,-124.2523508,"Southwestern Oregon Community College, East College Way, Coos Bay, Coos County, Oregon, 97420, United States of America",True
Treasure Valley Community College,OR,Ontario,44.0182889,-116.9728556,"Treasure Valley Community College, 650, College Boulevard, Ontario, Malheur County, Oregon, 97914, United States of America",True
Community College of Beaver County,PA,Monaca,40.6552948,-80.3103221,"Centerpoint Community Church, 118, Community College Drive, Monaca, Beaver County, Pennsylvania, 15061, United States of America",True
Bucks County Community College,PA,Newtown,40.2394494,-74.9657987,"Bucks County Community College, 275, Swamp Road, Tyler Walk, Newtown Township, Bucks County, Pennsylvania, 18940, United States of America",True
Delaware County Community College,PA,Media,39.9671919,-75.3927798,"Delaware County Community College, 901, Media Line Road, Media, Delaware County, Pennsylvania, 19063, United States of America",True
Harrisburg Area Community College,PA,Harrisburg,40.273238,-76.8889141,"Harrisburg Area Community College, Urban Meadow, Capitol Heights, Midtown, Harrisburg, Dauphin County, Pennsylvania, 17102, United States of America",True
Johnson College,PA,Scranton,41.4500136,-75.6409011,"Johnson College, Main Avenue, Scranton, Lackawanna County, Pennsylvania, 18519, United States of America",True
Lackawanna College,PA,Scranton,41.4117637,-75.6586757,"Lackawanna College, 501, Vine Street, Downtown, Scranton, Lackawanna County, Pennsylvania, 18509, United States of America",True
Lincoln Technical Institute-Allentown,PA,Allentown,,,,False
Lincoln Technical Institute-Philadelphia,PA,Philadelphia,39.9555801,-75.1945205,"Lincoln Technical Institute, Ludlow Street, Powelton Village, West Philadelphia, Philadelphia, Philadelphia County, Pennsylvania, 19139, United States of America",True
Luzerne County Community College,PA,Nanticoke,41.1938759,-75.9910072,"Luzerne County Community College, 1333, South Prospect Street, Nanticoke, Luzerne County, Pennsylvania, 18634, United States of America",True
Montgomery County Community College,PA,Blue Bell,40.1732908,-75.2752708,"Montgomery County Community College, 340, DeKalb Pike, Blue Bell Country Club, Franklinville, Whitpain Township, Montgomery County, Pennsylvania, 19422, United States of America",True
New Castle School of Trades,PA,New Castle,41.0353567,-80.4018792,"New Castle School of Trades, 4117, Pulaski Road, New Castle, Lawrence County, Pennsylvania, 16101, United States of America",True
Northampton County Area Community College,PA,Bethlehem,40.6731618,-75.3218985,"Northampton County Area Community College, Oakland Road, Bethlehem Township, Northampton County, Pennsylvania, 18020, United States of America",True
Orleans Technical College,PA,Philadelphia,40.0904541,-75.0114207,"Orleans Technical Institute, 2770, Red Lion Road, Far Northeast Philadelphia, Northeast Philadelphia, Philadelphia, Philadelphia County, Pennsylvania, 19154, United States of America",True
Pennsylvania State University-Penn State York,PA,York,,,,False
Penn Commercial Business/Technical School,PA,Washington,,,,False
Pennco Tech-Bristol,PA,Bristol,,,,False
Community College of Philadelphia,PA,Philadelphia,39.9618484,-75.1665244,"Community College of Philadelphia, 1700, Spring Garden Street, North Philadelphia, Philadelphia, Philadelphia County, Pennsylvania, 19130, United States of America",True
Reading Area Community College,PA,Reading,40.3343147,-75.9352092,"Reading Area Community College, 10, South 2nd Street, Reading, Berks County, Pennsylvania, 19602, United States of America",True
Rosedale Technical College,PA,Pittsburgh,,,,False
Rosemont College,PA,Rosemont,40.0339415,-75.3293406,"Rosemont College, Wendover Road, Rosemont, Lower Merion Township, Montgomery County, Pennsylvania, 19010, United States of America",True
Schuylkill Technology Center,PA,Frackville,40.7757556,-76.2296907,"Schuylkill Technology Center, 101, Technology Drive, Frackville, Schuylkill County, Pennsylvania, 17931, United States of America",True
Laurel Technical Institute,PA,Hermitage,,,,False
Thaddeus Stevens College of Technology,PA,Lancaster,40.0376855,-76.2893736,"Thaddeus Stevens College of Technology, 750, East King Street, East Side, Stevens, Lancaster, Lancaster County, Pennsylvania, 17602, United States of America",True
Villanova University,PA,Villanova,40.0367774,-75.3420233,"Villanova University, South Ithan Avenue, Garrett Hill, Radnor, Radnor Township, Delaware County, Pennsylvania, 19010, United States of America",True
Welder Training and Testing Institute,PA,Allentown,,,,False
Westmoreland County Community College,PA,Youngwood,,,,False
Williamson College of the Trades,PA,Media,39.9065003,-75.4235288,"Williamson College of the Trades, 106, South New Middletown Road, Elwyn, Media, Delaware County, Pennsylvania, 19063, United States of America",True
YTI Career Institute-York,PA,York,39.9925906,-76.6603164,"YTI Career Institute, 1405, Williams Road, Barwood, York, York County, Pennsylvania, 17406, United States of America",True
Technical College of the Lowcountry,SC,Beaufort,32.4198897,-80.6897913,"Technical College of the Lowcountry, 921, Ribaut Road, Waterford Place, Beaufort, Beaufort County, South Carolina, 29902, United States of America",True
Denmark Technical College,SC,Denmark,,,,False
Florence-Darlington Technical College,SC,Florence,34.2463814,-79.8132036,"Florence-Darlington Technical College, 2715, West Lucas Street, Florence County, South Carolina, 29502, United States of America",True
Greenville Technical College,SC,Greenville,34.8257854,-82.3706599,"Greenville Technical College, Douglas W Brister Boulevard, Cavalier Heights, Greenville, Greenville County, South Carolina, 29607, United States of America",True
Midlands Technical College,SC,West Columbia,33.9504035,-81.1173596,"Midlands Technical College - Airport Campus, 1260, Lexington Drive, West Columbia, Lexington County, South Carolina, 29170, United States of America",True
Orangeburg Calhoun Technical College,SC,Orangeburg,33.5441354,-80.829581,"Orangeburg-Calhoun Technical College, 3250, Saint Matthews Road, Orangeburg County, South Carolina, 29115, United States of America",True
Spartanburg Community College,SC,Spartanburg,34.9753928,-81.9917144,"Spartanburg Community College, New Cut Road, Una, Spartanburg County, South Carolina, 29349, United States of America",True
Central Carolina Technical College,SC,Sumter,33.9332125,-80.3709144,"Central Carolina Technical College, Miller Road, Burns Down, Sumter, Sumter County, South Carolina, 29150, United States of America",True
Tri-County Technical College,SC,Pendleton,34.6417287,-82.7904505,"Tri-County Technical College, 7900, Highway 76, Woodhaven, Pendleton, Anderson County, South Carolina, 29670, United States of America",True
South Dakota School of Mines and Technology,SD,Rapid City,,,,False
Tennessee College of Applied Technology-Athens,TN,Athens,35.443434,-84.6305684,"Tennessee College of Applied Technology (Athens), 1635, Vo-Tech Drive, Athens, McMinn County, East Tennessee, Tennessee, 37303, United States of America",True
Chattanooga State Community College,TN,Chattanooga,35.0991503,-85.2391824,"Chattanooga State Community College, 4501, Amnicola Highway, Kings Point, Chattanooga, Hamilton County, East Tennessee, Tennessee, 37406, United States of America",True
Tennessee College of Applied Technology-Dickson,TN,Dickson,36.0508014,-87.3664416,"Tennessee College of Applied Technology, 740, SR 46, Pomona, Dickson, Dickson County, Middle Tennessee, Tennessee, 37055, United States of America",True
Dyersburg State Community College,TN,Dyersburg,36.0487807,-89.3874403,"Dyersburg State Community College, 1510, Lake Road, Dyersburg, Dyer County, West Tennessee, Tennessee, 38024, United States of America",True
Tennessee College of Applied Technology-Harriman,TN,Harriman,,,,False
Tennessee College of Applied Technology-Hartsville,TN,Hartsville,,,,False
Tennessee College of Applied Technology-Hohenwald,TN,Hohenwald,,,,False
Tennessee College of Applied Technology-Jacksboro,TN,Jacksboro,36.317367,-84.2092807,"Tennessee College of Applied Technology - Jacksboro, 265, Elkins Road, Jacksboro, Campbell County, East Tennessee, Tennessee, 37757, United States of America",True
Tennessee College of Applied Technology-Livingston,TN,Livingston,,,,False
Tennessee College of Applied Technology-Henry/Carroll,TN,Paris,,,,False
Genesis Career College-Cookeville,TN,Cookeville,36.1764852,-85.4855276,"Genesis Career College, East 10th Street, The Lowlands, Cookeville, Putnam County, Middle Tennessee, Tennessee, 38503, United States of America",True
Tennessee College of Applied Technology-Memphis,TN,Memphis,35.1502052,-90.0378322,"The Tennessee College of Applied Technology, I 40, Dixie Homes, Memphis, Shelby County, West Tennessee, Tennessee, 38105, United States of America",True
Tennessee College of Applied Technology-Morristown,TN,Morristown,36.2050463,-83.2999877,"Tennessee College of Applied Technology - Morristown, Pauline Avenue, Sherwood-Lincoln Heights, Morristown, Hamblen County, East Tennessee, Tennessee, 37813, United States of America",True
Motlow State Community College,TN,TN 37388,35.3671432,-86.2994494,"Motlow State Community College, Ledford Mill Road, Ledfords Mill, Lynchburg, Moore County, Middle Tennessee, Tennessee, 37183, United States of America",True
Lincoln College of Technology-Nashville,TN,Nashville,,,,False
Nashville State Community College,TN,Nashville,36.1351282,-86.8559875,"Nashville State Community College, White Bridge Pike, Nashville, Davidson County, Middle Tennessee, Tennessee, 37209, United States of America",True
Tennessee College of Applied Technology Northwest,TN,Newbern,,,,False
Tennessee College of Applied Technology-Pulaski,TN,Pulaski,35.1911912,-87.0088961,"Tennessee College of Applied Technology, 1233, East College Street, Rebel Acres, Pulaski, Giles County, Middle Tennessee, Tennessee, 38478, United States of America",True
Roane State Community College,TN,Harriman,35.8808492,-84.6200361,"Roane State Community College Library, 276, Patton Lane, Harriman, Roane County, East Tennessee, Tennessee, 37748, United States of America",True
Tennessee College of Applied Technology-Crump,TN,Crump,,,,False
Southwest Tennessee Community College,TN,Memphis,35.1616518,-89.8663467,"Southwest Tennessee Community College, Macon Cove, Memphis, Shelby County, West Tennessee, Tennessee, 38134, United States of America",True
Tennessee College of Applied Technology-Shelbyville,TN,Shelbyville,,,,False
Tennessee College of Applied Technology-Oneida-Huntsville,TN,Huntsville,,,,False
Tennessee College of Applied Technology-Crossville,TN,Crossville,,,,False
Tennessee College of Applied Technology-McMinnville,TN,McMinnville,,,,False
Tennessee College of Applied Technology-Knoxville,TN,Knoxville,35.9575084,-83.9643134,"Tennessee College of Applied Technology - Knoxville, Liberty Street, Marble City, Knoxville, Knox County, East Tennessee, Tennessee, 37921, United States of America",True
Pellissippi State Community College,TN,Knoxville,36.00036,-83.7806748,"Pellissippi State Community College - Strawberry Plains, Strawberry Plains Pike, Knoxville, Knox County, East Tennessee, Tennessee, 37924, United States of America",True
Southern Adventist University,TN,Collegedale,35.0474447,-85.0493009,"Southern Adventist University, Old Tallant Road, Collegedale, Hamilton County, East Tennessee, Tennessee, 37315, United States of America",True
Northeast State Community College,TN,Blountville,,,,False
Volunteer State Community College,TN,Gallatin,36.3633133,-86.4980298,"Volunteer State Community College, Nashville Pike, Gallatin, Sumner County, Middle Tennessee, Tennessee, 37066, United States of America",True
Walters State Community College,TN,Morristown,36.2148666,-83.2620644,"Walters State Community College, 500, Davy Crockett Parkway, The Colonies, Morristown, Hamblen County, East Tennessee, Tennessee, 37813, United States of America",True
William R Moore College of Technology,TN,Memphis,35.1453926,-90.0202971,"William R Moore College of Technology, North Bellevue Boulevard, Stonewall Place, Dixie Homes, Memphis, Shelby County, West Tennessee, Tennessee, 38107, United States of America",True
Alvin Community College,TX,Alvin,29.3962,-95.2402,"Alvin Community College, 3110, Mustang Road, Alvin, Brazoria County, Texas, 77511, United States of America",True
Angelina College,TX,Lufkin,31.286555,-94.7324043,"Angelina College, 3500, South First Street, Lufkin, Angelina County, Texas, 75904, United States of America",True
Austin Community College District,TX,Austin,,,,False
Coastal Bend College,TX,Beeville,28.4356864,-97.7563346,"Coastal Bend College, 3800, Charco Road, Beeville, Bee County, Texas, 78102, United States of America",True
Blinn College District,TX,Brenham,,,,False
Remington College-Dallas Campus,TX,Dallas,,,,False
Brazosport College,TX,Lake Jackson,,,,False
Central Texas College,TX,Killeen,31.1140211,-97.810795,"Central Texas College, 6200, West Central Texas Expressway, Killeen, Bell County, Texas, 76549, United States of America",True
Cisco College,TX,Cisco,32.3996172,-98.9853085,"Cisco College, 101, College Heights, Cisco, Eastland County, Texas, 76437, United States of America",True
North Central Texas College,TX,Gainesville,33.6208361,-97.1700951,"North Central Texas College Gainesville Campus, 1525, West California Street, Gainesville, Cooke County, Texas, 76240, United States of America",True
Del Mar College,TX,Corpus Christi,27.7514436,-97.3980447,"Del Mar Center for Economic Development, 3209, South Staples Street, Corpus Christi, Nueces County, Texas, 78411, United States of America",True
Dallas College,TX,Dallas,32.9145892,-96.887661,"Dallas Christian College, Christian Parkway, Farmers Branch, Dallas County, Texas, 75234, United States of America",True
El Paso Community College,TX,El Paso,31.7723402,-106.3708953,"El Paso Community College, Viscount Boulevard, El Paso, El Paso County, Texas, 79925, United States of America",True
Western Technical College,TX,El Paso,,,,False
Frank Phillips College,TX,Borger,35.6545179,-101.405719,"Frank Phillips College, 1301, Roosevelt Street, Borger, Hutchinson County, Texas, 79007, United States of America",True
Galveston College,TX,Galveston,29.2832966,-94.8089018,"Galveston College (Eastbound), Avenue R, Galveston, Galveston County, Texas, 77551, United States of America",True
Grayson College,TX,Denison,33.7051453,-96.6322693,"Grayson College, 6101, Grayson Drive, Denison, Grayson County, Texas, 75020, United States of America",True
Trinity Valley Community College,TX,Athens,32.1950593,-95.8596131,"Trinity Valley Community College, 100, Cardinal Drive, Athens, Henderson County, Texas, 75751, United States of America",True
Hill College,TX,Hillsboro,32.0132519,-97.0867645,"Hill College, 112, Lamar Drive, Hillsboro, Hill County, Texas, 76645, United States of America",True
Houston Community College,TX,Houston,29.7422846,-95.3772124,"Houston Community College, 3100, Main Street, Midtown, Houston, Harris County, Texas, 77002, United States of America",True
Howard College,TX,Big Spring,32.2528677,-101.4477463,"Howard College, 1001, Birdwell Lane, Big Spring, Howard County, Texas, 79720, United States of America",True
Kilgore College,TX,Kilgore,32.3781513,-94.8710321,"Kilgore College, 1100, Broadway Boulevard, Pineview addition, Kilgore, Gregg County, Texas, 75662, United States of America",True
Lamar State College-Orange,TX,Orange,30.0924108,-93.7315174,"Lamar State College Orange, 410, West Front Avenue, Orange, Orange County, Texas, 77630, United States of America",True
Lamar State College-Port Arthur,TX,Port Arthur,29.8782933,-93.9268002,"Lamar State College Port Arthur, 1500, Procter Street, Port Arthur, Jefferson County, Texas, 77640, United States of America",True
Lee College,TX,Baytown,29.7332828,-94.9762689,"Lee College, 200, Lee Drive, Baytown, Harris County, Texas, 77520, United States of America",True
Lincoln College of Technology-Grand Prairie,TX,Grand Prairie,,,,False
College of the Mainland,TX,Texas City,29.3954349,-94.9996523,"College of the Mainland, North Amburn Road, Texas City, Galveston County, Texas, 77591, United States of America",True
Midland College,TX,Midland,32.0306448,-102.1061419,"Midland College, 3600, North Garfield Street, Hatfield, Midland, Midland County, Texas, 79705, United States of America",True
Navarro College,TX,Corsicana,32.076352,-96.5009561,"Navarro College, 3200, West 7th Avenue, Corsicana Commercial Historic District, Corsicana, Navarro County, Texas, 75110, United States of America",True
Lone Star College System,TX,The Woodlands,30.1868012,-95.4880929,"Lone Star College System Office, Shadow Bend Place, The Woodlands, Montgomery County, Texas, 77381, United States of America",True
Northeast Texas Community College,TX,Mount Pleasant,,,,False
Ocean Corporation,TX,Houston,,,,False
Odessa College,TX,Odessa,31.8669864,-102.3830557,"Odessa College, Kermit Highway, Hawkins, Westside, Odessa, Ector County, Texas, 79764, United States of America",True
Texas Southmost College,TX,Brownsville,25.8988938,-97.491344,"Texas Southmost College, Circle Drive, Brownsville, Cameron County, Texas, 78520, United States of America",True
Panola College,TX,Carthage,32.155886,-94.3560135,"Panola Junior College, University Drive, Carthage, Panola County, Texas, 75633, United States of America",True
Aviation Institute of Maintenance-Houston,TX,Houston,,,,False
St Philip's College,TX,San Antonio,29.4217388,-98.4887322,"St. Philip's College, Villita Street, La Villita, San Antonio, Bexar County, Texas, 78205, United States of America",True
San Jacinto Community College,TX,Pasadena,,,,False
South Plains College,TX,Levelland,33.5766328,-102.3636385,"South Plains College, 1401, College Avenue, Levelland, Hockley County, Texas, 79336, United States of America",True
South Texas Vocational Technical Institute-Weslaco,TX,Weslaco,,,,False
Miller-Motte College-STVT-McAllen,TX,McAllen,,,,False
Southwest Texas Junior College,TX,Uvalde,29.2208146,-99.7408144,"Southwest Texas Junior College, 2401, Garner Field Road, Uvalde, Uvalde County, Texas, 78801, United States of America",True
Stephen F Austin State University,TX,Nacogdoches,31.623554,-94.6434449,"Stephen F. Austin State University, 1936, North Street, Nacogdoches, Nacogdoches County, Texas, 75965, United States of America",True
Tarrant County College District,TX,Fort Worth,,,,False
Temple College,TX,Temple,31.0720495,-97.3488111,"Temple College, 2600, South 1st Street, Temple, Bell County, Texas, 76504, United States of America",True
Texarkana College,TX,Texarkana,33.4444166,-94.0774782,"Texarkana College, 2500, North Robison Road, Texarkana, Bowie County, Texas, 75599, United States of America",True
Tyler Junior College,TX,Tyler,32.3349608,-95.2824611,"Tyler Junior College, 1327, South Baxter Avenue, Tyler, Smith County, Texas, 75701, United States of America",True
Universal Technical Institute of Texas Inc.,TX,Houston,,,,False
Victoria College,TX,Victoria,28.8166141,-96.9809471,"Victoria College, 2200, East Red River Street, Victoria, Victoria County, Texas, 77901, United States of America",True
Weatherford College,TX,Weatherford,32.7408234,-97.7909829,"Weatherford College, College Park Drive, Weatherford, Parker County, Texas, 76086, United States of America",True
Western Texas College,TX,Snyder,32.6800884,-100.9149215,"Western Texas College, 6200, College Avenue, Snyder, Scurry County, Texas, 79549, United States of America",True
Wharton County Junior College,TX,Wharton,29.3238584,-96.0855144,"Wharton County Junior College, 911, East Boling Highway, Wharton, Wharton County, Texas, 77488, United States of America",True
Bridgerland Technical College,UT,Logan,41.7586696,-111.8573644,"Bridgerland Technical College West, 1400 North, Logan, Cache County, Utah, 84321, United States of America",True
Ogden-Weber Technical College,UT,Ogden,41.2636057,-111.9639305,"Ogden Weber Technical College, 200 N, Washington Boulevard, Ogden, Weber County, Utah, 84404, United States of America",True
Snow College,UT,Ephraim,39.3605454,-111.5806727,"Snow College, 100 South, Ephraim, Sanpete County, Utah, 84627, United States of America",True
Southern Utah University,UT,Cedar City,37.6748541,-113.0731048,"Southern Utah University, 351, Shakespeare Lane, Cedar City, Iron County, Utah, 84720, United States of America",True
Uintah Basin Technical College,UT,Roosevelt,40.2987025,-109.9750993,"Uintah Basin Technical College, 1100, East Lagoon Street, Roosevelt, Uintah County, Utah, 84066, United States of America",True
Utah Valley University,UT,Orem,40.2794106,-111.7178868,"Utah Valley University, 800, West University Parkway, Orem, Utah County, Utah, 84058, United States of America",True
Salt Lake Community College,UT,Salt Lake City,40.6726602,-111.9436997,"Salt Lake Community College, 4600 S, Redwood Road, Salt Lake City, Salt Lake County, Utah, 84123, United States of America",True
University of Utah,UT,Salt Lake City,40.7628137,-111.8368719,"University of Utah, 201, Presidents Circle, East Central, Salt Lake City, Salt Lake County, Utah, 84112, United States of America",True
Weber State University,UT,Ogden,41.1887229,-111.9456028,"Weber State University, 3848, Harrison Boulevard, Ogden, Weber County, Utah, 84408, United States of America",True
Vermont State University,VT,Randolph,43.9380854,-72.599981,"Vermont State University (Randolph Campus), 124, Admin Drive, Randolph Center, Randolph, Orange County, Vermont, 05061, United States of America",True
Advanced Technology Institute,VA,Virginia Beach,36.8953347,-76.1914845,"Advanced Technology Institute, 1429, Miller Store Road, Virginia Beach, Virginia, 23455, United States of America",True
Norfolk Technical Center,VA,Norfolk,36.8696154,-76.2095453,"Norfolk Technical Center, 1330, North Military Highway, River Oaks, Janaf, Norfolk, Virginia, 23502, United States of America",True
Central Virginia Community College,VA,Lynchburg,37.3592837,-79.186346,"Central Virginia Community College, CVCC Campus Drive, College Park, Lynchburg, Virginia, 24514, United States of America",True
Mountain Gateway Community College,VA,Clifton Forge,37.8122923,-79.8519523,"Mountain Gateway Community College, 1000, College Drive, Clifton Forge, Alleghany County, Virginia, 24422, United States of America",True
Centura College-Virginia Beach,VA,Virginia Beach,36.8375916,-76.0645724,"Centura College, Dean Drive, Cheltenham Square, Eureka Park, Virginia Beach, Virginia, 23452, United States of America",True
Eastern Shore Community College,VA,Melfa,37.6408333,-75.7516068,"Eastern Shore Community College, 29316, Lankford Highway, Melfa, Accomack County, Virginia, 23410, United States of America",True
Germanna Community College,VA,Locust Grove,,,,False
J Sargeant Reynolds Community College,VA,Richmond,,,,False
Brightpoint Community College,VA,Chester,37.3456465,-77.4080586,"Brightpoint Community College - Chester Campus, 13101, Route 1, Bryan Ridge, Chester, Chesterfield County, Virginia, 23831, United States of America",True
Laurel Ridge Community College,VA,Middletown,39.0365977,-78.2649799,"Laurel Ridge Community College - Middletown Campus, 172, Skirmisher Lane, Middletown, Frederick County, Virginia, 22645, United States of America",True
Mountain Empire Community College,VA,Big Stone Gap,36.8542181,-82.7595212,"Mountain Empire Community College, 3441, Mountain Empire Road, Big Stone Gap, Wise County, Virginia, 24219, United States of America",True
New River Community College,VA,Dublin,,,,False
Tidewater Tech-Trades,VA,Norfolk,,,,False
Northern Virginia Community College,VA,Annandale,38.8339054,-77.2363502,"Northern Virginia Community College - Annandale Campus, 8333, Little River Turnpike, Annandale, Fairfax County, Virginia, 22003, United States of America",True
Patrick & Henry Community College,VA,Martinsville,36.7388003,-79.8701585,"Patrick & Henry Community College, 645, Patriot Avenue, Martinsville, Henry County, Virginia, 24112, United States of America",True
Paul D Camp Community College,VA,Franklin,,,,False
Piedmont Virginia Community College,VA,Charlottesville,,,,False
Rappahannock Community College,VA,Glenns,,,,False
Southside Virginia Community College,VA,Alberta,36.8390242,-77.9179892,"Southside Virginia Community College - Christanna Campus, Campus Drive, Alberta, Brunswick County, Virginia, 23821, United States of America",True
Southwest Virginia Community College,VA,Cedar Bluff,,,,False
Virginia Highlands Community College,VA,Abingdon,36.6990404,-82.0014682,"Virginia Highlands Community College, Fulkerson Street Southwest, Fractionville, Abingdon, Washington County, Virginia, 24210, United States of America",True
Virginia Western Community College,VA,Roanoke,37.2457228,-79.9732946,"Virginia Western Community College, 3094, Colonial Avenue Southwest, Bluefield Heights, Roanoke, Virginia, 24015, United States of America",True
Wytheville Community College,VA,Wytheville,36.9558557,-81.0714708,"Wytheville Community College, 1000, East Main Street, Wytheville, Wythe County, Virginia, 24382, United States of America",True
Bellingham Technical College,WA,Bellingham,48.764887,-122.510672,"Bellingham Technical College, 3028, Lindbergh Avenue, Birchwood, Bellingham, Whatcom County, Washington, 98225, United States of America",True
Big Bend Community College,WA,Moses Lake,,,,False
Clark College,WA,Vancouver,45.6342302,-122.6527783,"Clark College, 1933, Fort Vancouver Way, Central Park, Vancouver, Clark County, Washington, 98663, United States of America",True
Clover Park Technical College,WA,Lakewood,47.1762988,-122.4947129,"Clover Park Technical College, Lakewood, Pierce County, Washington, 98499, United States of America",True
Columbia Basin College,WA,Pasco,46.2534693,-119.1213647,"Columbia Basin College, Pasco, Franklin County, Washington, 99301, United States of America",True
Divers Institute of Technology,WA,Seattle,47.6476048,-122.3408349,"Divers Institute of Technology, 1341, North Northlake Way, Fremont, Seattle, King County, Washington, 98103, United States of America",True
Edmonds College,WA,Lynnwood,47.8173949,-122.3275206,"Edmonds College, 20000, 68th Avenue West, Lynnwood, Snohomish County, Washington, 98036, United States of America",True
Everett Community College,WA,Everett,48.005767,-122.2026286,"Everett Community College, 2000, Tower Street, Northwest Everett, Everett, Snohomish County, Washington, 98201, United States of America",True
The Evergreen State College,WA,Olympia,47.0749498,-122.9731279,"The Evergreen State College, 2700, Evergreen Parkway Northwest, Olympia, Thurston County, Washington, 98505, United States of America",True
Pierce College District,WA,Lakewood,,,,False
Grays Harbor College,WA,Aberdeen,46.9551501,-123.8012069,"Grays Harbor College, 1620, Edward P Smith Drive, Aberdeen, Grays Harbor County, Washington, 98520, United States of America",True
Green River College,WA,Auburn,47.3139423,-122.1778941,"Green River College, 126th Avenue Southeast, Lea Hill, Auburn, King County, Washington, 90092, United States of America",True
Highline College,WA,Des Moines,47.3879578,-122.3025023,"Highline College, 2400, South 240th Street, Highline, Des Moines, King County, Washington, 98198, United States of America",True
Bates Technical College,WA,Tacoma,47.2515115,-122.4464119,"Bates Technical College Down Campus, 1101, South Yakima Avenue, McCarver Neighborhood, Tacoma, Pierce County, Washington, 98405, United States of America",True
Lake Washington Institute of Technology,WA,Kirkland,47.7047485,-122.1673289,"Lake Washington Institute of Technology, 11605, 132nd Avenue Northeast, Firloch, Kirkland, King County, Washington, 98034, United States of America",True
Lower Columbia College,WA,Longview,46.1423913,-122.938378,"Lower Columbia College, Commerce Avenue, Longview, Cowlitz County, Washington, 98632, United States of America",True
North Seattle College,WA,Seattle,47.6987081,-122.3325518,"North Seattle College, 9600, College Way North, Licton Springs, Maple Leaf, Seattle, King County, Washington, 98103, United States of America",True
Olympic College,WA,Bremerton,47.5748857,-122.6353433,"Olympic College, 1600, Chester Avenue, Bremerton, Kitsap County, Washington, 98337, United States of America",True
Perry Technical Institute,WA,Yakima,46.5720667,-120.5349625,"Perry Technical Institute, 2011, West Washington Avenue, Yakima, Yakima County, Washington, 98903, United States of America",True
Peninsula College,WA,Port Angeles,48.100617,-123.4131751,"Peninsula Community College, 1502, East Lauridsen Boulevard, Port Angeles, Clallam County, Washington, 98362, United States of America",True
Renton Technical College,WA,Renton,47.491597,-122.1761368,"Renton Technical College, Jefferson Avenue Northeast, Liberty Ridge, Renton, King County, Washington, 98056, United States of America",True
South Seattle College,WA,Seattle,47.5481933,-122.3523391,"South Seattle College, 6000, 16th Avenue Southwest, Delridge, Seattle, King County, Washington, 98106, United States of America",True
Seattle Central College,WA,Seattle,47.6161905,-122.3214977,"Seattle Central College, East Howell Street, Capitol Hill, Seattle, King County, Washington, 98191, United States of America",True
Shoreline Community College,WA,Shoreline,47.7489752,-122.3598849,"Shoreline Community College, Carlyle Hall Road North, Richmond Highlands, Shoreline, King County, Washington, 98133, United States of America",True
Skagit Valley College,WA,Mount Vernon,48.4376932,-122.3101454,"Skagit Valley College, 2405, Mount Vernon, Skagit County, Washington, 98273, United States of America",True
South Puget Sound Community College,WA,Olympia,47.022211,-122.9317291,"South Puget Sound Community College, 2011, Mottman Road Southwest, Olympia, Thurston County, Washington, 98512, United States of America",True
Spokane Community College,WA,Spokane,47.6748784,-117.3576797,"Spokane Community College, North Ralph Street, Chief Garry Park, Spokane, Spokane County, Washington, 99217, United States of America",True
Walla Walla Community College,WA,Walla Walla,46.0792707,-118.2778138,"Walla Walla Community College, Water Center Drive, Walla Walla, Walla Walla County, Washington, 99362, United States of America",True
Walla Walla University,WA,College Place,46.0464038,-118.3919772,"Walla Walla University Church, Southwest 4th Street, College Place, Walla Walla County, Washington, 99324, United States of America",True
Wenatchee Valley College,WA,Wenatchee,47.4308399,-120.3378998,"Wenatchee Valley College, Nelson Avenue, Wenatchee, Chelan County, Washington, 98801, United States of America",True
Yakima Valley College,WA,Yakima,46.5851248,-120.5281718,"Yakima Valley College, West Nob Hill Boulevard, Yakima, Yakima County, Washington, 98902, United States of America",True
Ben Franklin Career Center,WV,Dunbar,38.3678717,-81.753736,"Ben Franklin Career Center, 28th Street, Dunbar, Kanawha County, West Virginia, 25064, United States of America",True
James Rumsey Technical Institute - Adult Education,WV,Martinsburg,,,,False
Mercer County Technical Education Center,WV,Princeton,37.3595666,-81.1041646,"Mercer County Technical Education Center, Stafford Drive, Princeton, Mercer County, West Virginia, 24740, United States of America",True
Academy of Careers and Technology,WV,Beckley,37.7951897,-81.165339,"Academy of Careers and Technology, School Road, Beckley, Raleigh County, West Virginia, 25927, United States of America",True
Southern West Virginia Community and Technical College,WV,Logan,37.8514207,-82.0234276,"Southern West Virginia Community and Technical College - Logan Campus, Lower Dempsey Branch Road, Thompson Town, Mount Gay, Logan County, West Virginia, 25614, United States of America",True
Fred W Eberle Technical Center,WV,Buckhannon,39.0017147,-80.2256312,"Fred W Eberle Technical Center, Morton Avenue, Buckhannon, Upshur County, West Virginia, 26201, United States of America",True
West Virginia Northern Community College,WV,Wheeling,40.0632538,-80.7213475,"West Virginia Northern Community College, 1704, Market Street, Downtown Wheeling Historic District, Vineyard Hills, Wheeling, Ohio County, West Virginia, 26003, United States of America",True
Wheeling University,WV,Wheeling,40.0714296,-80.6907569,"Wheeling University, Locust Avenue, Lenox, Wheeling, Ohio County, West Virginia, 26003, United States of America",True
Wood County Technical Center-Practical Nursing,WV,Parkersburg,,,,False
Madison Area Technical College,WI,Madison,43.0377191,-89.3955859,"Madison Area Technical College-Goodman South Campus, 2429, Perry Street, Burr Oaks, Madison, Dane County, Wisconsin, 53713, United States of America",True
Blackhawk Technical College,WI,Janesville,,,,False
Lakeshore Technical College,WI,Cleveland,43.9249379,-87.7534367,"Lakeshore College - Cleveland, 1290, North Avenue, Cleveland, Manitowoc County, Wisconsin, 53015, United States of America",True
Mid-State Technical College,WI,Wisconsin Rapids,44.3908418,-89.7838515,"Mid-State Technical College - Wisconsin Rapids Campus, 500, 32nd Street North, Wisconsin Rapids, Wood County, Wisconsin, 54494, United States of America",True
Nicolet Area Technical College,WI,Rhinelander,45.6098499,-89.4170861,"Nicolet Area Technical College, 5364, College Drive, Rhinelander, Oneida County, Wisconsin, 54501, United States of America",True
Northcentral Technical College,WI,Wausau,44.9853741,-89.64536,"Northcentral Technical College-Wausau, 1000, West Campus Drive, Northwest, Wausau, Marathon County, Wisconsin, 54401, United States of America",True
Northeast Wisconsin Technical College,WI,Green Bay,44.5281053,-88.1044452,"Northeast Wisconsin Technical College-Green Bay, 2740, West Mason Street, Fritsch Park, Green Bay, Brown County, Wisconsin, 54307, United States of America",True
Chippewa Valley Technical College,WI,Eau Claire,44.7928955,-91.5030813,"Chippewa Valley Technical College, 620, West Clairemont Avenue, Upper Campus, Eau Claire, Eau Claire County, Wisconsin, 54701, United States of America",True
Waukesha County Technical College,WI,Pewaukee,43.072232,-88.2559265,"Waukesha County Technical College, Lookout Drive, Village of Pewaukee, Waukesha County, Wisconsin, 53072, United States of America",True
Casper College,WY,Casper,42.8282385,-106.3284324,"Casper College, South Oak Street, Casper, Natrona County, Wyoming, 82605, United States of America",True
Eastern Wyoming College,WY,Torrington,42.0798571,-104.1913504,"Eastern Wyoming College, Torrington, Goshen County, Wyoming, 82240, United States of America",True
Laramie County Community College,WY,Cheyenne,41.1041483,-104.7783011,"Laramie County Community College, 1400, East College Drive, Cheyenne, Laramie County, Wyoming, 82007, United States of America",True
Northwest College,WY,Powell,44.7631468,-108.7649295,"Northwest College, 231, West 6th Street, Powell, Park County, Wyoming, 82435, United States of America",True
Northern Wyoming Community College District,WY,Sheridan,,,,False
Western Wyoming Community College,WY,Rock Springs,41.5908728,-109.2365813,"Western Wyoming Community College, 2500, College Drive, Rock Springs, Sweetwater County, Wyoming, 82901, United States of America",True
WyoTech,WY,Laramie,41.3036111,-105.6209268,"WyoTech, 1889, Venture Drive, Laramie, Albany County, Wyoming, 82070, United States of America",True
Palau Community College,PW,Koror,,,,False
Georgia Piedmont Technical College,GA,Clarkston,,,,False
ETI School of Skilled Trades,IL,Willowbrook,,,,False
Miller-Motte College-Tulsa,OK,Tulsa,36.1094085,-95.9037912,"Miller-Motte College, 3801, South Sheridan Road, Tulsa, Tulsa County, Oklahoma, 74145, United States of America",True
Francis Tuttle Technology Center,OK,Oklahoma City,35.6217135,-97.5826538,"Francis Tuttle Technology Center - Portland Campus, 3500, Northwest 150th Street, Oklahoma City, Oklahoma County, Oklahoma, 73134, United States of America",True
Central Technology Center,OK,Drumright,,,,False
Athens Technical College,GA,Athens,33.989178,-83.3402109,"Athens Technical College, Hull Road, Wonderland Estates, Athens, Clarke County, Georgia, 30601, United States of America",True
GateWay Community College-Central City,AZ,Phoenix,33.449924,-111.9976567,"GateWay Community College, 108, South 40th Street, Central City, Phoenix, Maricopa County, Arizona, 85034, United States of America",True
Owensboro Community and Technical College,KY,Owensboro,37.7187124,-87.0832882,"Owensboro Community and Technical College, Foors Lane, Owensboro, Daviess County, Kentucky, 42303, United States of America",True
Moore Norman Technology Center,OK,Norman,,,,False
Franklin County Career and Technology Center,PA,Chambersburg,,,,False
Red River Technology Center,OK,Duncan,34.4910661,-97.9899317,"Red River Technology Center, West Bois D'Arc Avenue, Dixie Park, Duncan, Stephens County, Oklahoma, 73533, United States of America",True
Southern Union State Community College,AL,Wadley,33.1287985,-85.5722053,"Southern Union State Community College, Cooledge Street, Wadley, Randolph County, Alabama, 36276, United States of America",True
Clinton Technical School,MO,Clinton,38.3635459,-93.7684672,"Clinton Technical School, 602, South 5th Street, Clinton, Henry County, Missouri, 64735, United States of America",True
Greene County Career and Technology Center,PA,Waynesburg,39.8936482,-80.1510224,"Greene County Career and Technology Center, 60, Zimmerman Drive, Waynesburg, Greene County, Pennsylvania, 15370, United States of America",True
Pike-Lincoln Technical Center,MO,Eolia,,,,False
San Joaquin Valley College-Fresno Trades Education,CA,Fresno,,,,False
Metro Technology Centers,OK,Oklahoma City,,,,False
Luna Community College,NM,Las Vegas,35.6156436,-105.2524506,"Luna Community College, 366, Luna Drive, Las Vegas, San Miguel County, New Mexico, 87701, United States of America",True
Great Plains Technology Center,OK,Lawton,,,,False
Pioneer Technology Center,OK,Ponca City,,,,False
Portage Lakes Career Center,OH,Uniontown,40.9431996,-81.4719382,"Portage Lakes Career Center, 4401, Shriver Road, Green Meadows Estates, Uniontown, Summit County, Ohio, 44685, United States of America",True
Caddo Kiowa Technology Center,OK,Fort Cobb,,,,False
"Center for Instruction, Technology & Innovation",NY,Mexico,,,,False
Southern Oklahoma Technology Center,OK,Ardmore,,,,False
Canadian Valley Technology Center,OK,El Reno,,,,False
Meridian Technology Center,OK,Stillwater,36.107339,-97.1095532,"Meridian Technology Center, South Berkshire Drive, Westbrook Estates, Stillwater, Payne County, Oklahoma, 74074, United States of America",True
Universal Technical Institute of Illinois Inc,IL,Lisle,,,,False
Pennsylvania College of Technology,PA,Williamsport,41.2360615,-77.0275145,"Pennsylvania College of Technology, College Avenue, Millionaire's Row, Williamsport, Lycoming County, Pennsylvania, 17702, United States of America",True
Ogeechee Technical College,GA,Statesboro,32.3955618,-81.8185452,"Ogeechee Technical College, Joe Kennedy Boulevard, Statesboro, Bulloch County, Georgia, 30460, United States of America",True
Southern Technical College,FL,Fort Myers,,,,False
Southwest Technology Center,OK,Altus,,,,False
Western Area Career & Technology Center,PA,Canonsburg,,,,False
Southeastern Technical College,GA,Vidalia,32.2038886,-82.3659577,"Southeastern Technical College, 1st Street, Vidalia, Toombs County, Georgia, 30474, United States of America",True
Erwin Technical College,FL,Tampa,,,,False
Central Pennsylvania Institute of Science and Technology,PA,Pleasant Gap,40.8817671,-77.7406026,"Central Pennsylvania Institute of Science and Technology, North Harrison Road, Spring Township, Centre County, Pennsylvania, 16823, United States of America",True
Northwest Educational Center,,Houston,,,,False
National Career Education,CA,Citrus Heights,,,,False
All-State Career-Baltimore,MD,Baltimore,,,,False
Lincoln Technical Institute-Moorestown,NJ,Moorestown,,,,False
Knox County Career Center,OH,Mount Vernon,40.3756456,-82.4746212,"Knox County Career Center, Martinsburg Road, Mount Vernon, Pleasant Township, Knox County, Ohio, 43050, United States of America",True
Madison Adult Career Center,OH,Mansfield,40.7741815,-82.4612884,"Madison Adult Career Center, 600, Esley Lane, Wooster Heights, Mansfield, Madison Township, Richland County, Ohio, 44905, United States of America",True
Remington College-Cleveland Campus,OH,Cleveland,,,,False
Brown & Clermont Adult Career Campuses,OH,Bethel,,,,False
Chisholm Trail Technology Center,OK,Omega,,,,False
Gordon Cooper Technology Center,OK,Shawnee,,,,False
Kiamichi Technology Center-McAlester,OK,McAlester,,,,False
Eastern Center for Arts and Technology,PA,Willow Grove,40.1589046,-75.1082974,"Eastern Center for Arts and Technology, 3075, Terwood Road, Morganville, Willow Grove, Upper Moreland Township, Montgomery County, Pennsylvania, 19090, United States of America",True
College of the Marshall Islands,MH,Majuro,,,,False
Remington College-Fort Worth Campus,TX,North Richland Hills,,,,False
School of Automotive Machinists & Technology,TX,Houston,,,,False
Centura College-Newport News,VA,Newport News,37.1404676,-76.517314,"Centura College - Newport News, 616, Denbigh Boulevard, Newport News, Virginia, 23608, United States of America",True
Centura College-Norfolk,VA,Norfolk,36.9084309,-76.232674,"Centura College, North Military Highway, Rosemont, Norfolk, Virginia, 23513, United States of America",True
Technical & Career Education Center,VA,Virginia Beach,,,,False
Madison Oneida BOCES,NY,Verona,43.1411112,-75.5598764,"Madison-Oneida BOCES, Tilden Hill Road, Town of Verona, Oneida County, New York, 13478, United States of America",True
Bay Mills Community College,MI,Brimley,46.4546027,-84.6065971,"Bay Mills Community College, 12214, West Lakeshore Drive, Westons Iroquois Beach, Brimley, Bay Mills Township, Chippewa County, Michigan, 49715, United States of America",True
CET-Coachella,CA,Coachella,,,,False
CET-Oxnard,CA,Oxnard,,,,False
CET-Santa Maria,CA,Santa Maria,,,,False
Greater Lowell Technical School,MA,Tyngsboro,,,,False
Genesis Career College-Lebanon,TN,Lebanon,,,,False
Southwest College for the Deaf,TX,Big Spring,,,,False
Hacienda La Puente Adult Education,CA,La Puente,,,,False
Hawaii Community College,HI,Hilo,,,,False
Buckeye Joint Vocational School,OH,New Philadelphia,,,,False
Greater Altoona Career & Technology Center,PA,Altoona,40.5083776,-78.3980506,"Greater Altoona Career & Technology Center, 1500, 4th Avenue, East End, Altoona, Blair County, Pennsylvania, 16602, United States of America",True
Erie 2 Chautauqua Cattaraugus BOCES,NY,Angola,,,,False
Eastern New Mexico University Ruidoso Branch Community College,NM,Ruidoso,,,,False
Heartland Community College,IL,Normal,40.534973,-89.0121645,"Heartland Community College, 1500, West Raab Road, Normal, McLean County, Illinois, 61761, United States of America",True
Mid-EastCTC-Adult Education,OH,Zanesville,,,,False
Copper Mountain Community College,CA,Joshua Tree,,,,False
Coconino Community College,AZ,Flagstaff,35.1711143,-111.6455019,"Coconino Community College, East Zuni Drive, Pinnacle Pines, Flagstaff, Coconino County, Arizona, 86011, United States of America",True
Eastland-Fairfield Career and Technical Schools,OH,Groveport,,,,False
Mahoning County Career and Technical Center,OH,Canfield,41.032088,-80.7858355,"Mahoning County Career and Technical Center, North Palmyra Road, The Lakes at the Preserve, Canfield, Mahoning County, Ohio, 44451, United States of America",True
Scioto County Career Technical Center,OH,Lucasville,,,,False
Remington College-Memphis Campus,TN,Memphis,,,,False
Industrial Management Training Institute,CT,Waterbury,,,,False
Saline County Career Center,MO,Marshall,39.1151706,-93.211006,"Saline County Career Center, West Vest Street, Marshall, Saline County, Missouri, 65340, United States of America",True
Cass Career Center,MO,Harrisonville,,,,False
Washington County Career Center-Adult Technical Training,OH,Marietta,,,,False
Vantage Career Center,OH,Van Wert,,,,False
Indian Capital Technology Center-Muskogee,OK,Muskogee,35.776181,-95.3119856,"Indian Capital Technology Center, 2403, North 41st Street East, Muskogee, Muskogee County, Oklahoma, 74403, United States of America",True
Western Technology Center,OK,Burns Flat,,,,False
Eastern Oklahoma County Technology Center,OK,Choctaw,,,,False
Venango County Area Vocational Technical School,PA,Oil City,,,,False
Lancaster County Career and Technology Center,PA,Willow Street,,,,False
Indiana County Technology Center,PA,Indiana,40.6461061,-79.1218299,"Indiana County Technology Center, Hamill Road, Chestnut Grove, White Township, Indiana County, Pennsylvania, 15701, United States of America",True
Northern Tier Career Center,PA,Towanda,41.8009872,-76.4857706,"Northern Tier Career Center, 120, Career Center Lane, Towanda, Bradford County, Pennsylvania, 18848, United States of America",True
All-State Career School-Pittsburgh,PA,West Mifflin,,,,False
United Technical Center,WV,Clarksburg,39.3108047,-80.3584117,"United Technical Center, Gore Road, Clarksburg, Harrison County, West Virginia, 26369, United States of America",True
Charles H McCann Technical School,MA,North Adams,42.6609095,-73.1015938,"Charles H. McCann Technical School, 70, Hodges Cross Road, North Adams, Berkshire County, Massachusetts, 01247, United States of America",True
Putnam Career and Technical Center,WV,Eleanor,38.535077,-81.9235147,"Putnam Career and Technical Center, 300, Roosevelt Boulevard, Eleanor, Putnam County, West Virginia, 25070, United States of America",True
Oconee Fall Line Technical College,GA,Sandersville,32.9965626,-82.8401087,"Oconee Fall Line Technical College (Sandersville Campus), Fall Line Freeway, Sandersville, Washington County, Georgia, 31082, United States of America",True
York County Community College,ME,Wells,43.3071689,-70.5942211,"York County Community College, 112, College Drive, Wells, York County, Maine, 04090, United States of America",True
Tillamook Bay Community College,OR,Tillamook,45.456358,-123.8133775,"Tillamook Bay Community College, 3rd Street, Tillamook, Tillamook County, Oregon, United States of America",True
Vanguard-Sentinel Adult Career and Technology Center,OH,Fremont,,,,False
San Joaquin Valley College-Trades Education Center,CA,Fresno,,,,False
Oregon Coast Community College,OR,Newport,44.6034631,-124.0461002,"Oregon Coast Community College: Central County Campus, 400, Southeast College Way, South Beach, Newport, Lincoln County, Oregon, 97366, United States of America",True
Osceola Technical College,FL,Kissimmee,,,,False
Green Country Technology Center,OK,Okmulgee,35.6326356,-95.9366915,"Green Country Technology Center, Kennedy Street, Okmulgee, Okmulgee County, Oklahoma, 74447, United States of America",True
Klamath Community College,OR,Klamath Falls,42.1956962,-121.7007318,"Klamath Community College, 7390, South 6th Street, Hager, Klamath Falls, Klamath County, Oregon, 97603, United States of America",True
Cayuga Onondaga BOCES,NY,Auburn,,,,False
Clearfield County Career and Technology Center,PA,Clearfield,,,,False
Delaware County Intermediate Unit,PA,Broomall,,,,False
Mid-Del Technology Center,OK,Midwest City,35.455082,-97.4024607,"Mid-Del Technology Center, Bomber Trail, Midwest City, Oklahoma County, Oklahoma, 73110, United States of America",True
Dutchess BOCES Career Technical Institute,NY,Poughkeepsie,,,,False
Institute of Technology,CA,Clovis,,,,False
Ocean County Vocational-Technical School,NJ,Toms River,,,,False
Okaloosa Technical College,FL,Fort Walton Beach,30.4690154,-86.6151422,"Okaloosa Technical College, Lewis Turner Boulevard, Fort Walton Beach, Okaloosa County, Florida, 32547, United States of America",True
Lincoln Technical Institute-Lincoln,RI,Lincoln,,,,False
Wayne County Schools Career Center,OH,Smithville,40.8636781,-81.8689788,"Wayne County Schools Career Center, Kaufman Drive, Smithville, Wayne County, Ohio, 44677, United States of America",True
South Louisiana Community College,LA,Lafayette,30.2180404,-92.0523588,"South Louisiana Community College Lafayette Campus, 1101, Bertrand Drive, Lafayette, Lafayette Parish, Louisiana, 70506, United States of America",True
Universal Technical Institute of California Inc,CA,Rancho Cucamonga,,,,False
New York Automotive and Diesel Institute,NY,Jamaica,,,,False
Interactive College of Technology,TX,Pasadena,,,,False
Career School of Texas,TX,Houston,29.8298247,-95.3833745,"Career School Of Texas, 4473, North Freeway, Independence Heights, Houston, Harris County, Texas, 77037, United States of America",True
M-DCPS The English Center,FL,Miami,,,,False
San Joaquin Valley College-Ontario,CA,Ontario,34.0685407,-117.5503805,"San Joaquin Valley College, San Bernardino Freeway, Ontario, San Bernardino County, California, 91743, United States of America",True
Technical Institute - Mooresville,NC,Mooresville,35.6053808,-80.8550389,"NASCAR Technical Institute, Byers Creek Road, Mooresville, Iredell County, North Carolina, 28117, United States of America",True
Jay's Technical Institute,TX,Houston,,,,False
South Florida Institute of Technology,FL,Miami,,,,False
InterCoast Colleges-West Covina,CA,West Covina,,,,False
ATA College,CA,El Cajon,,,,False
Mountwest Community and Technical College,WV,Huntington,38.3926592,-82.4582079,"Mountwest Community and Technical College, 1, Mountwest Way, Huntington, Cabell County, West Virginia, 25701, United States of America",True
Remington College-North Houston Campus,TX,Houston,,,,False
Universal Technical Institute of Pennsylvania Inc,PA,Exton,,,,False
Employment Solutions-College for Technical Education,KY,Lexington,,,,False
Delta Technical College-Mississippi,MS,Horn Lake,,,,False
New River Community and Technical College,WV,Beaver,,,,False
UEI College-West Covina,CA,West Covina,,,,False
Mountainland Technical College,UT,Lehi,40.4196134,-111.8860894,"Mountainland Technical College, 2301, Ashton Boulevard, Lehi, Utah County, Utah, 84043, United States of America",True
Universal Technical Institute - Sacramento,CA,Sacramento,38.64643,-121.529789,"Universal Technical Institute Sacramento, Duckhorn Drive, Sacramento, Sacramento County, California, 95834, United States of America",True
Stautzenberger College-Brecksville,OH,Brecksville,,,,False
Automotive Training Center-Warminster,PA,Warminster,40.2006588,-75.075294,"Automotive Training Center, 900, Johnsville Boulevard, Warminster Township, Bucks County, Pennsylvania, 18974, United States of America",True
CBT Technology Institute-Main Campus,FL,Miami,,,,False
CBT Technology Institute-Hialeah,FL,Hialeah,25.867039,-80.3027709,"CBT Technology Institute - Hialeah Campus, 935, West 49th Street, Palm Springs, Hialeah, Miami-Dade County, Florida, 33012, United States of America",True
Valley College of Medical Careers,CA,West Hills,,,,False
Advanced Welding Institute,VT,South Burlington,,,,False
Miller-Motte College-Raleigh,NC,Raleigh,,,,False
San Joaquin Valley College-Hesperia,CA,Hesperia,,,,False
South Texas Vocational Technical Institute-Brownsville,TX,Brownsville,,,,False
Miller-Motte College-STVT-Corpus Christi,TX,Corpus Christi,,,,False
CBT Technology Institute-Cutler Bay,FL,Cutler Bay,,,,False
Emerald Coast Technical College,FL,DeFuniak Springs,30.7320693,-86.1281232,"Emerald Coast Technical College, North 20th Street, Dixon, DeFuniak Springs, Walton County, Florida, 32433, United States of America",True
Somerset County Technology Center,PA,Somerset,,,,False
Miller-Motte College-Fayetteville,NC,Fayetteville,,,,False
Miller-Motte College-STVT-San Antonio,TX,San Antonio,,,,False
Universal Technical Institute-Dallas Fort Worth,TX,Irving,,,,False
Miller-Motte College-Jacksonville,NC,Jacksonville,,,,False
Advanced Training Institute,NV,Las Vegas,,,,False
American Trade School,MO,Saint Ann,,,,False
Northeast Technical Institute,ME,Scarborough,,,,False
Florida Academy,FL,Fort Myers,26.6474299,-81.8252219,"Southwest Florida Public Service Academy, Michigan Avenue, Fort Myers, Lee County, Florida, 33916, United States of America",True
CET-Soledad,CA,Soledad,36.4144984,-121.3166216,"CET, Los Coches Road, Soledad, Monterey County, California, 93960, United States of America",True
New England Tractor Trailer Training School of Massachusetts,MA,North Andover,,,,False
Oklahoma Technical College,OK,Tulsa,,,,False
San Joaquin Valley College-Temecula,CA,Temecula,,,,False
Tooele Technical College,UT,Tooele,,,,False
Futura Career Institute,FL,Hialeah,,,,False
MotoRing Technical Training Institute,RI,East Providence,,,,False
Advanced Career Institute,CA,Visalia,,,,False
M T Training Center,TX,,,,,False
Berks Career & Technology Center,PA,Leesport,,,,False
Carthage R9 School District-Carthage Technical Center,MO,Carthage,,,,False
Helms College,GA,Augusta,33.5154124,-82.0578479,"Helms College, Village West Drive, Village West, Augusta, Richmond County, Georgia, 30990, United States of America",True
San Joaquin Valley College-Lancaster,CA,Lancaster,,,,False
InterCoast Colleges-Fairfield,CA,Fairfield,38.2756712,-122.050557,"InterCoast Colleges Fairfield Campus, 5253, Martin Road, Fairfield, Solano County, California, 94534, United States of America",True
Midwest Technical Institute-Springfield,MO,Springfield,37.1477601,-93.2562729,"Midwest Technical Institute, 3600, East Primrose Street, Springfield, Greene County, Missouri, 65804, United States of America",True
Central Georgia Technical College,GA,Warner Robins,32.5444054,-83.667656,"Central Georgia Technical College, Cohen Walker Drive, Warner Robins, Houston County, Georgia, 31047, United States of America",True
Louisiana Delta Community College,LA,Monroe,32.4958166,-92.0314683,"Louisiana Delta Community College, 7500, Millhaven Road, Monroe, Ouachita Parish, Louisiana, 71203, United States of America",True
The Fab School,CA,Rancho Cucamonga,,,,False
Electrical and HVAC/R Training Center,NY,Copiague,,,,False
Philadelphia Technician Training,PA,Philadelphia,,,,False
InterAmerican Technical Institute,FL,Miami,,,,False
Aparicio-Levy Technical College,FL,Tampa,,,,False
Coastal Pines Technical College,GA,Waycross,31.2128382,-82.3821099,"Coastal Pines Technical College, George Street, Waycross, Ware County, Georgia, 31503, United States of America",True
HVAC Technical Institute,IL,Chicago,,,,False
Southern Regional Technical College,GA,Thomasville,30.8621046,-83.9514824,"Southern Regional Technical College, 15689, Montrose Road, Thomasville, Thomas County, Georgia, 31792, United States of America",True
Jones Technical Institute,FL,Jacksonville,,,,False
Texas State Technical College,TX,Waco,31.6354121,-97.0871685,"Texas State Technical College, 3801, Campus Drive, Waco, McLennan County, Texas, 76705, United States of America",True
Universal Technical Institute-Southern California,CA,Long Beach,,,,False
Butte County Regional Occupational Program,CA,Chico,39.7154319,-121.804038,"Butte County Regional Occupational Program, Carmichael Drive, Chico Unified School District: Maintenance and Operations, Stirling Junction, Chico, Butte County, California, 95928, United States of America",True
Arclabs,SC,Piedmont,,,,False
DeHart Technical School,CA,Modesto,,,,False
Tulsa Technology Center,OK,Tulsa,,,,False
Clovis Community College,CA,Fresno,36.8858076,-119.7324491,"Clovis Community College Center, 10309, North Willow Avenue, Fresno, Fresno County, California, 93730, United States of America",True
Gadsden Technical College,FL,Quincy,30.5771346,-84.5787547,"Gadsden Technical Institute, 201, Martin Luther King Junior Boulevard, Quincy, Gadsden County, Florida, 32351, United States of America",True
Peloton College,TX,Arlington,,,,False
Arkansas Welding Academy,AR,Jacksonville,,,,False
Commercial Divers International,AZ,Goodyear,33.409523,-112.4086185,"Dive CDI - Commercial Divers International, 4055, South Sarival Avenue, Goodyear, Maricopa County, Arizona, 85338, United States of America",True
Miller-Motte College-STVT-Arlington,TX,Arlington,,,,False
Polytech Adult Education,DE,Woodside,,,,False
Wilton Simpson Technical College,FL,Brooksville,,,,False
Chicago Professional Center,IL,Prospect Heights,,,,False
Universal Technical Institute-Bloomfield,NJ,Bloomfield,40.8401823,-74.1823476,"Universal Technical Institute, 1515, Broad Street, Brookdale, Bloomfield, Essex County, New Jersey, 07003, United States of America",True
MCI,TX,McAllen,,,,False
Fortis College,MD,Landover,,,,False
Rockford Career College,IL,Rockford,42.2557098,-89.0276077,"Rockford Career College, 1130, South Alpine Road, Rockford, Rockford Township, Winnebago County, Illinois, 61108, United States of America",True
Western Maricopa Education Center,AZ,Glendale,,,,False
Austin Career Institute,TX,Austin,,,,False
Elite Welding Academy - Cincinnati,,Cincinnati,,,,False
Burlington County Adult Education,NJ,Westampton,,,,False
Madera Community College,CA,Madera,36.9262537,-119.9984127,"Madera Community College Center, Road 30, Madera County, California, United States of America",True
Technology Learning Center,MA,Oxford,42.1175863,-71.8994581,"Technology Learning Center, 11, Buffum Dam Road, Buffumville, Oxford, Worcester County, Massachusetts, 01540, United States of America",True
UEI College,WA,Tacoma,47.1931716,-122.4084776,"UEI College, 1415, East 72nd Street, 72nd Street Square, Tacoma, Pierce County, Washington, 98404, United States of America",True
Universal Technical Institute,FL,Miramar,,,,False
Boone Career and Technical Center,WV,Foster,,,,False
Heartland Welding Academy,KS,Andover,,,,False
Aviation Institute of Maintenance,AZ,Phoenix,,,,False
Tulsa Welding School,TX,Irving,,,,False
